{
"type": "FeatureCollection",
"name": "map",
"crs": { "type": "name", "properties": { "name": "urn:ogc:def:crs:OGC:1.3:CRS84" } },
"features": [
{"type":"Feature","properties":{"tur":"yol","not":null},"geometry":{"type":"LineString","coordinates":[[29.508786498183778,40.789677983447163],[29.508782611239905,40.789675160480208],[29.508777353439722,40.789672946669604],[29.508770227736843,40.789670041043195],[29.508764485665591,40.789669556772125],[29.50875780964299,40.789670386951101],[29.508751029848021,40.789671459265612],[29.508744146280684,40.789673361759093],[29.508738842760668,40.789675327739367]]}},
{"type":"Feature","properties":{"tur":"yol","not":null},"geometry":{"type":"LineString","coordinates":[[29.508738842760668,40.789675327739367],[29.508864868140105,40.789566476215953],[29.508873031566704,40.789562602047404],[29.508882716988094,40.789561495142102],[29.508895723125381,40.789561771868428],[29.508908452536346,40.789563985679031],[29.508917584505081,40.789568136573912],[29.508928376831769,40.789571734016135],[29.509331982177258,40.789836837835786],[29.509336409798454,40.789844586172904],[29.509338623609057,40.789853718141636],[29.509337516703756,40.789862850110374],[29.509334195987854,40.789873365710733],[29.5093314287246,40.789880837321519],[29.509329214913997,40.789886648574353],[29.509326170924421,40.789890799469248],[29.508942904963853,40.790230342670419],[29.508934603174097,40.790233663386317],[29.508921873763132,40.79023532374427],[29.508915232331326,40.79023532374427],[29.508905270183615,40.790232556481016],[29.508895308035903,40.790227575407158],[29.508599764320461,40.790032206621497]]}},
{"type":"Feature","properties":{"tur":"yol","not":null},"geometry":{"type":"LineString","coordinates":[[29.508599647038878,40.790002581022186],[29.508593122888662,40.790010691149732],[29.508590909078059,40.790015672223582],[29.508590909078059,40.790020376571114],[29.508593399614988,40.790026464550273],[29.508599764320461,40.790032206621497]]}},
{"type":"Feature","properties":{"tur":"yol","not":null},"geometry":{"type":"LineString","coordinates":[[29.509150190804263,40.789746976109278],[29.509156260960701,40.789741436435186],[29.509164286024138,40.78973756226663],[29.509171480908591,40.789734795003376],[29.509179090882537,40.789732996282261],[29.509190298298712,40.789732166103285],[29.509200813899085,40.789732996282261],[29.509213266583725,40.789734795003376],[29.509227241263154,40.789738392445599],[29.509240828958106,40.789743522692255]]}},
{"type":"Feature","properties":{"fid":1,"tur":"yol","not":null},"geometry":{"type":"LineString","coordinates":[[29.509014,40.790343],[29.50878441520948,40.790190977862714],[29.50863414336985,40.790091473575949],[29.50846651163905,40.789980474457344],[29.508453917753474,40.789972135275129],[29.508445778263489,40.789965765239486],[29.508439231282413,40.789959926040133],[29.508434276810252,40.789950370986681],[29.508431799574169,40.789942939278433],[29.508430384010694,40.789935507570192],[29.508430737901563,40.789925952516732],[29.508432861246774,40.789915335790667],[29.508437107937201,40.789902241828521],[29.508445601318051,40.789889855648113],[29.508833465710239,40.789552951541019],[29.508845851890655,40.789544104269304],[29.508855760834983,40.789537911179103],[29.508864077270399,40.789534018379541],[29.508873809269286,40.789532248925219],[29.508885133777088,40.789531895034351],[29.508895573557716,40.789532071979785],[29.508907075010953,40.789532602816088],[29.508919107300493,40.789535080052168],[29.508930254862857,40.789539326742592],[29.508940871588923,40.789543750378456],[29.509059509394028,40.789622759689166],[29.509164711722104,40.789692821364859],[29.509240828958106,40.789743522692255],[29.509364655904267,40.789825978346293],[29.50937235303066,40.78983314463639],[29.509376953611955,40.789844469144192],[29.509378015284561,40.789856855324601],[29.509376953611955,40.789867118159798],[29.509373414703266,40.78987915044933],[29.509367044667627,40.789891890520607],[29.509359966850251,40.789898968337987],[29.509305426715567,40.789948088947078],[29.509216412415039,40.790028258104812],[29.509101957598229,40.790131339814238],[29.509016950089329,40.790207900325854],[29.508968209658466,40.790251797534133],[29.508950515115021,40.790260290914986],[29.508928573881157,40.790262414260205],[29.508897431484701,40.790254628661089],[29.508863770952349,40.790243524155564]]}},
{"type":"Feature","properties":{"fid":2,"tur":"yol","not":null},"geometry":{"type":"LineString","coordinates":[[29.508598106164236,40.789824739728218],[29.508656498157585,40.78986508328726]]}},
{"type":"Feature","properties":{"fid":3,"tur":"yol","not":null},"geometry":{"type":"LineString","coordinates":[[29.508701796188785,40.789866852741618],[29.508837690282398,40.789747945409701]]}},
{"type":"Feature","properties":{"fid":4,"tur":"yol","not":null},"geometry":{"type":"LineString","coordinates":[[29.508807963449421,40.789653810438587],[29.508865647661032,40.789694861779367]]}},
{"type":"Feature","properties":{"fid":5,"tur":"yol","not":null},"geometry":{"type":"LineString","coordinates":[[29.508932058446963,40.78973800164863],[29.508941527120278,40.789744410982145],[29.508977123284701,40.789768471080073]]}},
{"type":"Feature","properties":{"fid":6,"tur":"yol","not":null},"geometry":{"type":"LineString","coordinates":[[29.508901744529641,40.789690968979812],[29.508908496290211,40.789685176049147],[29.508961552086465,40.789639654803835]]}},
{"type":"Feature","properties":{"fid":7,"tur":"yol","not":null},"geometry":{"type":"LineString","coordinates":[[29.509180256643372,40.789765639953124],[29.509159377082113,40.789784396169175]]}},
{"type":"Feature","properties":{"fid":8,"tur":"yol","not":null},"geometry":{"type":"LineString","coordinates":[[29.509206181646483,40.789961097034372],[29.509157510922705,40.78992618661993]]}},
{"type":"Feature","properties":{"fid":9,"tur":"yol","not":null},"geometry":{"type":"LineString","coordinates":[[29.508885362582419,40.78998224713947],[29.508960279822162,40.789915484157113]]}},
{"type":"Feature","properties":{"fid":10,"tur":"yol","not":null},"geometry":{"type":"LineString","coordinates":[[29.509003344493976,40.790133865362755],[29.508893262019253,40.790060477046268]]}},
{"type":"Feature","properties":{"fid":11,"tur":"yol","not":null},"geometry":{"type":"LineString","coordinates":[[29.508846375039276,40.790062005969531],[29.508789804878656,40.790112970078198]]}},
{"type":"Feature","properties":{"fid":12,"tur":"yol","not":null},"geometry":{"type":"LineString","coordinates":[[29.508740369693246,40.789921854670695],[29.508741790388292,40.789922829958648],[29.508834653294283,40.789986579088705]]}},
{"type":"Feature","properties":{"fid":13,"tur":"yol","not":null},"geometry":{"type":"LineString","coordinates":[[29.508636816994912,40.789921759112879],[29.508583814321895,40.789969665375025]]}},
{"type":"Feature","properties":{"fid":14,"tur":"yol","not":null},"geometry":{"type":"LineString","coordinates":[[29.509169232667706,40.790113224898761],[29.509223,40.790149]]}},
{"type":"Feature","properties":{"fid":15,"tur":"yol","not":null},"geometry":{"type":"LineString","coordinates":[[29.508656498157585,40.78986508328726],[29.508668191774333,40.789871782433899],[29.508674944518734,40.789873693587971],[29.508679403878244,40.789873820998245],[29.508686666263728,40.789872929126346],[29.508693036777313,40.78987203725444],[29.508701796188785,40.789866852741618]]}},
{"type":"Feature","properties":{"fid":16,"tur":"yol","not":null},"geometry":{"type":"LineString","coordinates":[[29.508865647661032,40.789694861779367],[29.508871411157653,40.789698759284967],[29.508876125337704,40.789701434900671],[29.508880202466397,40.789702071952028],[29.508884534415632,40.789702199362303],[29.50888886636487,40.789700797849314],[29.50889498205791,40.78969672072062],[29.508901744529641,40.789690968979812]]}},
{"type":"Feature","properties":{"fid":17,"tur":"yol","not":null},"geometry":{"type":"LineString","coordinates":[[29.508871411157653,40.789698759284967],[29.508922882916323,40.789733254620266],[29.508932058446963,40.78973800164863]]}},
{"type":"Feature","properties":{"fid":18,"tur":"yol","not":null},"geometry":{"type":"LineString","coordinates":[[29.508837690282398,40.789747945409701],[29.508851789975814,40.789735071212384],[29.50886121833592,40.789729210339885],[29.508874244045106,40.789727664494585],[29.508887239892818,40.789726947811801],[29.508900665750197,40.789728333398514],[29.508922882916323,40.789733254620266]]}},
{"type":"Feature","properties":{"fid":19,"tur":"yol","not":null},"geometry":{"type":"LineString","coordinates":[[29.508961552086465,40.789639654803835],[29.508970791169549,40.789631359251239],[29.508979964709109,40.789625753199289],[29.508991431633557,40.789622695352769],[29.509006466045616,40.789620656788422],[29.509022010098761,40.789619637506249],[29.509037554151902,40.789620656788422],[29.509059509394028,40.789622759689166]]}},
{"type":"Feature","properties":{"fid":20,"tur":"kavsak","not":null},"geometry":{"type":"LineString","coordinates":[[29.509016913687887,40.789888218358932],[29.509026087227443,40.789894079231431],[29.50903882825461,40.789897646719041],[29.509053353025582,40.789898920821756],[29.509072719386875,40.789898920821756],[29.509086224875674,40.789895353334146],[29.509101514108274,40.789889747282196],[29.50911425513544,40.789881593024809],[29.509122664213372,40.789869361638729],[29.509126996162607,40.789851779021234],[29.509127505803693,40.789836234968092],[29.509121390110653,40.789819416812236],[29.509113235853263,40.789807949887773],[29.509105336416418,40.789801834194733],[29.509091830927623,40.789796228142791],[29.509080364003172,40.789793934757903],[29.509070808232796,40.789793552527087],[29.509058704256987,40.789794444398986],[29.509046855101722,40.789796355553065],[29.509036534869718,40.789799285989311],[29.509024685714451,40.789804892041261],[29.50901538476462,40.789812154426748],[29.509007867558591,40.789829099992886],[29.509005828994244,40.789847447072006],[29.509006848276417,40.789865794151126],[29.509016913687887,40.789888218358932]]}},
{"type":"Feature","properties":{"fid":21,"tur":"yol","not":null},"geometry":{"type":"LineString","coordinates":[[29.508960279822162,40.789915484157113],[29.508966172547183,40.789907903245897],[29.508972033419681,40.789898474885788],[29.508976620189461,40.789890830269492],[29.508984647036574,40.789868533471939],[29.508993820576134,40.789846618905216],[29.509007867558591,40.789829099992886]]}},
{"type":"Feature","properties":{"fid":22,"tur":"yol","not":null},"geometry":{"type":"LineString","coordinates":[[29.508977123284701,40.789768471080073],[29.50899433021722,40.789774249870909],[29.509011148373084,40.789778326999603],[29.509035101504157,40.789780365563949],[29.509057016070884,40.789782913769386],[29.50907587279109,40.789788265000787],[29.509105336416418,40.789801834194733]]}},
{"type":"Feature","properties":{"fid":23,"tur":"yol","not":null},"geometry":{"type":"LineString","coordinates":[[29.509159377082113,40.789784396169175],[29.509152064133549,40.789794635514362],[29.509146967722682,40.789807376541525],[29.509144929158335,40.789821136850868],[29.509141361670729,40.789842541776508],[29.509134226695515,40.789861398496718],[29.50911425513544,40.789881593024809]]}},
{"type":"Feature","properties":{"fid":24,"tur":" yol","not":null},"geometry":{"type":"LineString","coordinates":[[29.509157510922705,40.78992618661993],[29.50914059720909,40.789916439734064],[29.50911613443693,40.789908795117768],[29.50908708489499,40.789904717989074],[29.509053353025582,40.789898920821756]]}},
{"type":"Feature","properties":{"fid":25,"tur":"yol","not":null},"geometry":{"type":"LineString","coordinates":[[29.509163021416896,40.790075957394187],[29.509156396082776,40.790087933959725],[29.50915588644169,40.790094049652765],[29.509156905723867,40.790100961659981],[29.509162830301495,40.790109020359687],[29.509169232667706,40.790113224898761]]}},
{"type":"Feature","properties":{"fid":26,"tur":"yol","not":null},"geometry":{"type":"LineString","coordinates":[[29.508668191774333,40.789871782433899],[29.508740369693246,40.789921854670695]]}},
{"type":"Feature","properties":{"fid":27,"tur":"yol","not":null},"geometry":{"type":"LineString","coordinates":[[29.508636816994912,40.789921759112879],[29.508655164074032,40.789914114496582],[29.508678097922932,40.789911056650062],[29.508694916078792,40.789911056650062],[29.508709695670305,40.789912585573319],[29.508723328569378,40.789914496727398],[29.508741790388292,40.789922829958648]]}},
{"type":"Feature","properties":{"fid":28,"tur":"yol","not":null},"geometry":{"type":"LineString","coordinates":[[29.508834653294283,40.789986579088705],[29.508842074942571,40.789991834762304],[29.508850866251315,40.78999527483964],[29.508862460586037,40.789995657070456],[29.508870017607787,40.789994542230517],[29.508873927510489,40.789991579941763],[29.508885362582419,40.78998224713947]]}},
{"type":"Feature","properties":{"fid":29,"tur":"yol","not":null},"geometry":{"type":"LineString","coordinates":[[29.508842074942571,40.789991834762304],[29.50889561910925,40.790027159260113],[29.509030036945852,40.790115836809207]]}},
{"type":"Feature","properties":{"fid":30,"tur":"yol","not":null},"geometry":{"type":"LineString","coordinates":[[29.508759417528829,40.790100165345777],[29.508825161229012,40.79003696985103]]}},
{"type":"Feature","properties":{"fid":31,"tur":"yol","not":null},"geometry":{"type":"LineString","coordinates":[[29.508825161229012,40.79003696985103],[29.508828856126893,40.790033147542879],[29.508832678435045,40.790031491209348],[29.508838029666457,40.790029452645001],[29.508842998667049,40.790027923721745],[29.508850261052537,40.79002613997794],[29.508855612283945,40.790025630336849],[29.508864403592693,40.790025120695766],[29.508873449721978,40.790025120695766],[29.508885298877246,40.790025630336849],[29.50889561910925,40.790027159260113]]}},
{"type":"Feature","properties":{"fid":32,"tur":"yol","not":null},"geometry":{"type":"LineString","coordinates":[[29.508587644593192,40.79006111409749],[29.508576305079011,40.790045824864904],[29.508572737591404,40.790037415786976],[29.508570953847599,40.790024165118709],[29.508569424924339,40.790005818039589],[29.508571973129772,40.789992057730245],[29.508583814321895,40.789969665375025]]}},
{"type":"Feature","properties":{"fid":33,"tur":"yol","not":null},"geometry":{"type":"LineString","coordinates":[[29.508851789975814,40.789735071212384],[29.50888886636487,40.789700797849314]]}},
{"type":"Feature","properties":{"fid":34,"tur":"yol","not":null},"geometry":{"type":"LineString","coordinates":[[29.508828856126893,40.790033147542879],[29.508870017607787,40.789994542230517]]}},
{"type":"Feature","properties":{"fid":35,"tur":"yol","not":null},"geometry":{"type":"LineString","coordinates":[[29.509030036945852,40.790115836809207],[29.509035587255813,40.790120805809728],[29.509038008050975,40.790128068195209],[29.509037880640708,40.790140554401837],[29.509035842076361,40.790150747223571],[29.509032784229831,40.790169603943781],[29.509024629972444,40.790187951022901],[29.509016950089329,40.790207900325854]]}},
{"type":"Feature","properties":{"fid":36,"tur":"yol","not":null},"geometry":{"type":"LineString","coordinates":[[29.50878441520948,40.790190977862714],[29.508760725474872,40.790165347644368],[29.508753080858572,40.790147510206332],[29.508750532653139,40.790129163127212],[29.508753080858572,40.790114383535695],[29.508759417528829,40.790100165345777]]}},
{"type":"Feature","properties":{"fid":37,"tur":"yol","not":null},"geometry":{"type":"LineString","coordinates":[[29.508636816994912,40.789921759112879],[29.508693036777313,40.78987203725444]]}},
{"type":"Feature","properties":{"fid":38,"tur":"yol","not":null},"geometry":{"type":"LineString","coordinates":[[29.509164711722104,40.789692821364859],[29.509176337781053,40.789710492974464],[29.509185352057777,40.789729604515195],[29.509188027673481,40.789744129286163],[29.509185925404005,40.789756488082517],[29.509183249788293,40.78976059706379],[29.509180256643372,40.789765639953124]]}},
{"type":"Feature","properties":{"fid":39,"tur":"yol","not":null},"geometry":{"type":"LineString","coordinates":[[29.509305426715567,40.789948088947078],[29.509291293698663,40.789957095555224],[29.509275494824976,40.78996524981261],[29.509256192168824,40.789971556621055],[29.509243196321112,40.78997334036486],[29.509229690832317,40.789973595185401],[29.509218797254089,40.789969326941311],[29.509206181646483,40.789961097034372]]}},
{"type":"Feature","properties":{"fid":40,"tur":"yol","not":null},"geometry":{"type":"LineString","coordinates":[[29.508696096614553,40.78967214248263],[29.508706416846554,40.789666154199864],[29.508714061462854,40.789663096353344],[29.508729286990313,40.789657617711683],[29.508745404389686,40.789652202775144],[29.508763624058535,40.789649081223487],[29.508780187393853,40.789649336044022],[29.508794966985366,40.789649718274838],[29.508807963449421,40.789653810438587]]}},
{"type":"Feature","properties":{"fid":41,"tur":"yol","not":null},"geometry":{"type":"LineString","coordinates":[[29.508725846912995,40.789886765085264],[29.508868291596713,40.789762922301193]]}},
{"type":"Feature","properties":{"fid":42,"tur":"yol","not":null},"geometry":{"type":"LineString","coordinates":[[29.508959517351222,40.789793054830461],[29.50892040239782,40.789764068993648]]}},
{"type":"Feature","properties":{"fid":43,"tur":"yol","not":null},"geometry":{"type":"LineString","coordinates":[[29.508868291596713,40.789762922301193],[29.508871859084312,40.78976120226254],[29.50887721031572,40.789759036287919],[29.508881032623872,40.78975814441602],[29.508887530547728,40.789757762185204],[29.508893391420223,40.789757379954388],[29.508900144164624,40.789757252544113],[29.508904221293317,40.789757379954388],[29.508907916191198,40.789757698480066],[29.508911674794213,40.789759673339276],[29.50892040239782,40.789764068993648]]}},
{"type":"Feature","properties":{"fid":44,"tur":"yol","not":null},"geometry":{"type":"LineString","coordinates":[[29.508725846912995,40.789886765085264],[29.508722215720233,40.789891160739622],[29.508720686796973,40.78989600232994],[29.50872119643806,40.789899314997008],[29.50872272536132,40.789903009894886],[29.508725018746212,40.789907150728716],[29.508728331413266,40.789910590806052],[29.508740369693246,40.789921854670695]]}},
{"type":"Feature","properties":{"fid":45,"tur":"yol","not":null},"geometry":{"type":"LineString","coordinates":[[29.508725846912995,40.789886765085264],[29.508668678615212,40.789937761451171],[29.508667429303408,40.789938875886349]]}},
{"type":"Feature","properties":{"fid":46,"tur":"yol","not":null},"geometry":{"type":"LineString","coordinates":[[29.508667429303408,40.789938875886349],[29.508665187678893,40.789940970192617],[29.508599647038878,40.790002581022186]]}},
{"type":"Feature","properties":{"fid":47,"tur":"yol","not":null},"geometry":{"type":"LineString","coordinates":[[29.508599647038878,40.790002581022186],[29.508594295807466,40.790006021099508],[29.508586523780895,40.790009206356295],[29.508576968010519,40.790009970817927],[29.508566265547699,40.790010098228201],[29.508557729059497,40.790009461176844],[29.508545242852872,40.790006912971407],[29.50853415815924,40.790004237355703],[29.508520397849896,40.790001052098908],[29.508510459848708,40.789999013534562],[29.508492622410671,40.78999124150797],[29.50846651163905,40.789980474457344]]}},
{"type":"Feature","properties":{"fid":48,"tur":"yol","not":null},"geometry":{"type":"LineString","coordinates":[[29.508638188646042,40.789892689662842],[29.508630985984109,40.789887537509934],[29.508586205255202,40.789855485863512]]}},
{"type":"Feature","properties":{"fid":49,"tur":"yol","not":null},"geometry":{"type":"LineString","coordinates":[[29.508596652897484,40.789800699446694],[29.508738842760668,40.789675327739367]]}},
{"type":"Feature","properties":{"fid":50,"tur":"yol","not":null},"geometry":{"type":"LineString","coordinates":[[29.508598106164236,40.789824739728218],[29.508594232102325,40.789821722141518],[29.50859295799961,40.789818664294998],[29.508591046845535,40.789811274499243],[29.508591811307163,40.789805541037019],[29.508593881724078,40.789803152094422],[29.508596652897484,40.789800699446694]]}},
{"type":"Feature","properties":{"fid":51,"tur":"yol","not":null},"geometry":{"type":"LineString","coordinates":[[29.508586205255202,40.789855485863512],[29.508581682190556,40.789849019792229],[29.508579898446754,40.789840355893752],[29.508577923587541,40.789829653430928],[29.508576219475163,40.789818966894394],[29.508576729116246,40.789806862918574],[29.508578130629235,40.78979501376331],[29.508579914373041,40.789783801659404],[29.508583609270918,40.789774882940385],[29.508590107194774,40.789766728682999],[29.508599774449134,40.789756010293907]]}},
{"type":"Feature","properties":{"fid":52,"tur":"yol","not":null},"geometry":{"type":"LineString","coordinates":[[29.508817725645113,40.790012694212464],[29.508714268504516,40.789939305895984]]}},
{"type":"Feature","properties":{"fid":53,"tur":"yol","not":null},"geometry":{"type":"LineString","coordinates":[[29.508714268504516,40.789939305895984],[29.508638188646042,40.789892689662842]]}},
{"type":"Feature","properties":{"fid":54,"tur":"yol","not":null},"geometry":{"type":"LineString","coordinates":[[29.508714268504516,40.789939305895984],[29.508705680255876,40.789934870425874],[29.508699118626875,40.789933086682076],[29.508688288753785,40.789932194810177],[29.508680007086127,40.789933596323166],[29.508668678615212,40.789937761451171]]}},
{"type":"Feature","properties":{"fid":55,"tur":"yol","not":null},"geometry":{"type":"LineString","coordinates":[[29.508714268504516,40.789939305895984],[29.50870281352476,40.789930474771509],[29.508699118626883,40.789926397642816],[29.508697080062536,40.789922320514123],[29.508694914087915,40.789917224103256],[29.508693894805742,40.789912637333479],[29.508692748113301,40.789905884589082],[29.508692365882485,40.789898749613869],[29.508692111061951,40.78988384261207],[29.508694531857103,40.78987721727794],[29.508701796188785,40.789866852741618]]}},
{"type":"Feature","properties":{"fid":56,"tur":"yol","not":null},"geometry":{"type":"LineString","coordinates":[[29.508636816994912,40.789921759112879],[29.508639618030013,40.7899169692827],[29.508640382491645,40.789911108410202],[29.508639618030013,40.789905247537703],[29.508638216517024,40.789900660767927],[29.508635795721862,40.789894162844071],[29.508630985984109,40.789887537509934]]}},
{"type":"Feature","properties":{"fid":57,"tur":"yol","not":null},"geometry":{"type":"LineString","coordinates":[[29.508825161229012,40.79003696985103],[29.508827038539632,40.790032402988835],[29.508827293360174,40.790028962911499],[29.508826911129358,40.790025905064979],[29.508825637026643,40.790021573115745],[29.508823980693112,40.79001838785895],[29.508821368782542,40.7900155529804],[29.508817725645113,40.790012694212464]]}},
{"type":"Feature","properties":{"fid":58,"tur":"yol","not":null},"geometry":{"type":"LineString","coordinates":[[29.508668191774333,40.789871782433899],[29.508674878822681,40.789878491380655],[29.508676917387028,40.789882058868258],[29.50867921077192,40.789888174561298],[29.508679720413006,40.789895436946786],[29.508679529297602,40.789902635627136],[29.508678764835967,40.789907732038017],[29.508678064079472,40.789913083269433],[29.508673986950779,40.78992200198843],[29.508671613934471,40.78992746072224],[29.508668866650488,40.789933289742166],[29.508665187678893,40.789940970192617]]}},
{"type":"Feature","properties":{"fid":59,"tur":"yol","not":null},"geometry":{"type":"LineString","coordinates":[[29.508933274816755,40.789706555200596],[29.508993667285527,40.789653042886499]]}},
{"type":"Feature","properties":{"fid":60,"tur":"yol","not":null},"geometry":{"type":"LineString","coordinates":[[29.508838863805437,40.789717353221107],[29.508786498183778,40.789677983447163]]}},
{"type":"Feature","properties":{"fid":61,"tur":"yol","not":null},"geometry":{"type":"LineString","coordinates":[[29.509134901571663,40.789763985380546],[29.509150190804263,40.789746976109278]]}},
{"type":"Feature","properties":{"fid":62,"tur":"yol","not":null},"geometry":{"type":"LineString","coordinates":[[29.509164906690639,40.789893036059475],[29.509228165890526,40.789936419256968]]}},
{"type":"Feature","properties":{"fid":63,"tur":"yol","not":null},"geometry":{"type":"LineString","coordinates":[[29.508998062939884,40.789927245717401],[29.508912825468137,40.790002927418776]]}},
{"type":"Feature","properties":{"fid":64,"tur":"yol","not":null},"geometry":{"type":"LineString","coordinates":[[29.508842074942571,40.789991834762304],[29.508850521845289,40.790000251803058],[29.508854153038033,40.790005411919061],[29.508856828653737,40.790012865419953],[29.508857784230774,40.790020510036257],[29.508857210884543,40.790030065806633],[29.508856303086368,40.7900367548459],[29.508854391932292,40.790044017231381],[29.508852671893624,40.790050992943755],[29.508849231816288,40.790058733117753],[29.508846375039276,40.790062005969531]]}},
{"type":"Feature","properties":{"fid":65,"tur":"yol","not":null},"geometry":{"type":"LineString","coordinates":[[29.508821368782542,40.7900155529804],[29.508893262019253,40.790060477046268]]}},
{"type":"Feature","properties":{"fid":66,"tur":"yol","not":null},"geometry":{"type":"LineString","coordinates":[[29.508912825468137,40.790002927418776],[29.508907808688694,40.790008183092475],[29.508903986380542,40.790015827708771],[29.508904941957582,40.790023854555891],[29.50890876426573,40.790031116941371],[29.508915071074178,40.790040099365527]]}},
{"type":"Feature","properties":{"fid":67,"tur":"yol","not":null},"geometry":{"type":"LineString","coordinates":[[29.509101957598229,40.790131339814238],[29.509088603864182,40.790136230415499],[29.509077375833993,40.790138953810057],[29.509063185514986,40.790141438310357],[29.509053056398386,40.790142585002805],[29.5090432139549,40.790142632781652],[29.509031364799636,40.790142059435432],[29.509019228971258,40.790139861608239],[29.509011966585774,40.790138332684982],[29.509003344493976,40.790133865362755]]}},
{"type":"Feature","properties":{"fid":68,"tur":"yol","not":null},"geometry":{"type":"LineString","coordinates":[[29.508789804878656,40.790112970078198],[29.508781553072609,40.790117369713698],[29.508768748340305,40.79012176536807],[29.508759383685337,40.790123485406738],[29.508746196722221,40.790124632099186],[29.508735112028585,40.790123294291334],[29.508723262873318,40.790121000906446],[29.508712178179685,40.790118325290742],[29.508702049063089,40.790115458559633],[29.508693257754341,40.790112400713113],[29.508686186484265,40.790109916212813],[29.508677968521742,40.790107049481698],[29.508668221635958,40.790103418288957],[29.508656945826903,40.79009921374999],[29.50863414336985,40.790091473575949]]}},
{"type":"Feature","properties":{"fid":69,"tur":"yol","not":null},"geometry":{"type":"LineString","coordinates":[[29.509086224875674,40.789895353334146],[29.509070625578065,40.789902176751013],[29.509061690932764,40.789905139039831],[29.509054094095315,40.789906572405386],[29.509046640594427,40.789906906857347],[29.509030109111677,40.789908722453717],[29.509018068841005,40.789912162531053],[29.508998062939884,40.789927245717401]]}},
{"type":"Feature","properties":{"fid":70,"tur":"yol","not":null},"geometry":{"type":"LineString","coordinates":[[29.509121390110653,40.789819416812236],[29.509131065825681,40.789832849636937],[29.509133550325981,40.789840494253234],[29.509133120316296,40.789852391187374],[29.509134649239556,40.789856882399455],[29.50913703818215,40.789860800265309],[29.509143679442577,40.789867632641105],[29.509149508462496,40.789873031651375],[29.509155719713238,40.789879147344415],[29.509156818626831,40.789882014075523],[29.50915829977124,40.789885263037455],[29.509160736492685,40.789888464220525],[29.509164906690639,40.789893036059475]]}},
{"type":"Feature","properties":{"fid":71,"tur":"yol","not":null},"geometry":{"type":"LineString","coordinates":[[29.509046855101722,40.789796355553065],[29.509061643153881,40.789791712045492],[29.509071581155073,40.789790183122236],[29.509087825964713,40.789786169698665],[29.509100439581609,40.789782347390513],[29.509111142044429,40.789777378389921],[29.509123946776739,40.789772218273917],[29.509134901571663,40.789763985380546]]}},
{"type":"Feature","properties":{"fid":72,"tur":"yol","not":null},"geometry":{"type":"LineString","coordinates":[[29.509006848276417,40.789865794151126],[29.509001059569719,40.789855544591589],[29.508997619492387,40.789845797705809],[29.508994370530459,40.789838535320321],[29.508988828183639,40.789830890704017],[29.508983668067639,40.789822099395273],[29.508976214566744,40.789811396932457],[29.508969334412075,40.789802987854522],[29.508964556526887,40.789797445507709],[29.508959517351222,40.789793054830461]]}},
{"type":"Feature","properties":{"fid":73,"tur":"yol","not":null},"geometry":{"type":"LineString","coordinates":[[29.508933274816755,40.789706555200596],[29.50893092021516,40.789709245747162],[29.508930060195826,40.789712590266795],[29.508929773522716,40.789716603690351],[29.508930155753522,40.78972128601783],[29.50893135022482,40.78972615946072],[29.508932783590378,40.789731080682465],[29.508934312513638,40.789734568538655],[29.508937704812126,40.789739728654659],[29.508941527120278,40.789744410982145]]}},
{"type":"Feature","properties":{"fid":74,"tur":"yol","not":null},"geometry":{"type":"LineString","coordinates":[[29.509228165890526,40.789936419256968],[29.509232691443614,40.789941212073032],[29.50923670486717,40.789948474458512],[29.509237660444207,40.789955545728589],[29.509237851559615,40.78996242588326],[29.509237087097986,40.789969688268748],[29.509236322636355,40.789977524000456],[29.50923250032821,40.789990902078983],[29.50922791355843,40.790005044619136],[29.509223517904054,40.790014218158696],[29.509216412415039,40.790028258104812]]}},
{"type":"Feature","properties":{"fid":75,"tur":"yol","not":null},"geometry":{"type":"LineString","coordinates":[[29.508907808688694,40.790008183092475],[29.508849231816288,40.790058733117753]]}},
{"type":"Feature","properties":{"fid":76,"tur":"yol","not":null},"geometry":{"type":"LineString","coordinates":[[29.508907808688694,40.790008183092475],[29.508902444019419,40.790010921417931],[29.508898048365047,40.790012641456599],[29.508891645998894,40.790014839283785],[29.50888467028652,40.790016368207041],[29.508876834554812,40.790017897130305],[29.508868807707699,40.790019043822745],[29.50885953861042,40.790020094957491],[29.508849457272674,40.790019903842087],[29.508839901502299,40.790019569390125],[29.508831635760924,40.790018279361121],[29.508821368782542,40.7900155529804]]}},
{"type":"Feature","properties":{"fid":77,"tur":"yol","not":null},"geometry":{"type":"LineString","coordinates":[[29.508893262019253,40.790060477046268],[29.508888970383175,40.79005774469276],[29.508886008094358,40.790056693558022],[29.50888094353606,40.790055355750169],[29.508875783420056,40.79005468684624],[29.508870432188644,40.790054877961644],[29.508865272072644,40.790055546865574],[29.508859634168122,40.79005707578883],[29.508853422917376,40.790058795827498],[29.508846375039276,40.790062005969531]]}},
{"type":"Feature","properties":{"fid":78,"tur":"yol","not":null},"geometry":{"type":"LineString","coordinates":[[29.508888970383175,40.79005774469276],[29.508881421324563,40.790051724557443],[29.508878124583802,40.790049263946557],[29.508876213429726,40.790047448350187],[29.508874541169909,40.790045346080696],[29.508872152227312,40.790040950426331],[29.508870527746346,40.790035503637213],[29.508869763284718,40.790031203540543],[29.508868616592274,40.790023750039651],[29.508867708794085,40.790015340961745],[29.508868568813419,40.790007122999221],[29.508869715505867,40.789999478382917],[29.508873927510489,40.789991579941763]]}},
{"type":"Feature","properties":{"fid":79,"tur":"yol","not":null},"geometry":{"type":"LineString","coordinates":[[29.508725846912995,40.789886765085264],[29.508718447660822,40.78988973036018],[29.508714147564135,40.789891450398834],[29.508709417457798,40.789892835985533],[29.508703970668684,40.789894173793392],[29.508697329408285,40.789895654937794],[29.508689875907393,40.789897183861058],[29.508682517964203,40.789897661649576],[29.508675160021014,40.789897757207278],[29.508668757654863,40.789897757207278],[29.508661017480858,40.789896897187944],[29.50865136615278,40.789895177149276],[29.50864400820959,40.789892883764388],[29.508630985984109,40.789887537509934]]}},
{"type":"Feature","properties":{"fid":80,"tur":"yol","not":null},"geometry":{"type":"LineString","coordinates":[[29.50892040239782,40.789764068993648],[29.508841829080307,40.789719050863482],[29.508838863805437,40.789717353221107]]}},
{"type":"Feature","properties":{"fid":81,"tur":"yol","not":null},"geometry":{"type":"LineString","coordinates":[[29.50892040239782,40.789764068993648],[29.508912382020558,40.789757812950135],[29.508909515289446,40.789755137334431],[29.508907126346852,40.789750550564648],[29.508905310750478,40.789746250467978],[29.50890273069248,40.789738988082497],[29.508901870673146,40.789732776831748],[29.508901297326922,40.789725132215452],[29.508900646340056,40.78971525991016],[29.508900933013166,40.789706755274523],[29.50890141080168,40.78969872842741],[29.508903226398051,40.789692994965186],[29.508908496290211,40.789685176049147]]}},
{"type":"Feature","properties":{"fid":82,"tur":"yol","not":null},"geometry":{"type":"LineString","coordinates":[[29.508933274816755,40.789706555200596],[29.508868291596713,40.789762922301193]]}},
{"type":"Feature","properties":{"fid":83,"tur":"yol","not":null},"geometry":{"type":"LineString","coordinates":[[29.508933274816755,40.789706555200596],[29.508924392429435,40.789712632073311],[29.508915601120691,40.789716932169995],[29.508908529850615,40.789718843324067],[29.508902653051837,40.789720754478154],[29.50889706292617,40.789721805612892],[29.508891138348535,40.789722522295669],[29.508883728147218,40.789723507734486],[29.50887338402579,40.789724057191293],[29.50886631275571,40.789724415532675],[29.508858763697116,40.78972422441727],[29.508851787984742,40.789722791051716],[29.508841829080307,40.789719050863482]]}}
]
}
