{
  "type": "FeatureCollection",
  "name": "map",
  "crs": {
    "type": "name",
    "properties": {
      "name": "urn:ogc:def:crs:OGC:1.3:CRS84"
    }
  },
  "features": [
    {
      "type": "Feature",
      "properties": {
        "tur": "yol",
        "not": null,
        "oneway": true
      },
      "geometry": {
        "type": "LineString",
        "coordinates": [
          [
            29.508786498183778,
            40.78967798344716
          ],
          [
            29.508782611239905,
            40.78967516048021
          ],
          [
            29.508777353439722,
            40.789672946669604
          ],
          [
            29.508770227736843,
            40.789670041043195
          ],
          [
            29.50876448566559,
            40.789669556772125
          ],
          [
            29.50875780964299,
            40.7896703869511
          ],
          [
            29.50875102984802,
            40.78967145926561
          ],
          [
            29.508744146280684,
            40.78967336175909
          ],
          [
            29.508738842760668,
            40.78967532773937
          ]
        ]
      }
    },
    {
      "type": "Feature",
      "properties": {
        "tur": "yol",
        "not": null,
        "oneway": true
      },
      "geometry": {
        "type": "LineString",
        "coordinates": [
          [
            29.50859976432046,
            40.7900322066215
          ],
          [
            29.508895308035903,
            40.79022757540716
          ],
          [
            29.508905270183615,
            40.790232556481016
          ],
          [
            29.508915232331326,
            40.79023532374427
          ],
          [
            29.508921873763132,
            40.79023532374427
          ],
          [
            29.508934603174097,
            40.79023366338632
          ],
          [
            29.508942904963853,
            40.79023034267042
          ],
          [
            29.50932617092442,
            40.78989079946925
          ],
          [
            29.509329214913997,
            40.78988664857435
          ],
          [
            29.5093314287246,
            40.78988083732152
          ],
          [
            29.509334195987854,
            40.78987336571073
          ],
          [
            29.509337516703756,
            40.789862850110374
          ],
          [
            29.509338623609057,
            40.789853718141636
          ],
          [
            29.509336409798454,
            40.789844586172904
          ],
          [
            29.509331982177258,
            40.789836837835786
          ],
          [
            29.50892837683177,
            40.789571734016135
          ],
          [
            29.50891758450508,
            40.78956813657391
          ],
          [
            29.508908452536346,
            40.78956398567903
          ],
          [
            29.50889572312538,
            40.78956177186843
          ],
          [
            29.508882716988094,
            40.7895614951421
          ],
          [
            29.508873031566704,
            40.789562602047404
          ],
          [
            29.508864868140105,
            40.78956647621595
          ],
          [
            29.508738842760668,
            40.78967532773937
          ]
        ]
      }
    },
    {
      "type": "Feature",
      "properties": {
        "tur": "yol",
        "not": null,
        "oneway": true
      },
      "geometry": {
        "type": "LineString",
        "coordinates": [
          [
            29.508599647038878,
            40.790002581022186
          ],
          [
            29.508593122888662,
            40.79001069114973
          ],
          [
            29.50859090907806,
            40.79001567222358
          ],
          [
            29.50859090907806,
            40.790020376571114
          ],
          [
            29.508593399614988,
            40.79002646455027
          ],
          [
            29.50859976432046,
            40.7900322066215
          ]
        ]
      }
    },
    {
      "type": "Feature",
      "properties": {
        "tur": "yol",
        "not": null,
        "oneway": true
      },
      "geometry": {
        "type": "LineString",
        "coordinates": [
          [
            29.509150190804263,
            40.78974697610928
          ],
          [
            29.5091562609607,
            40.789741436435186
          ],
          [
            29.509164286024138,
            40.78973756226663
          ],
          [
            29.50917148090859,
            40.789734795003376
          ],
          [
            29.509179090882537,
            40.78973299628226
          ],
          [
            29.509190298298712,
            40.789732166103285
          ],
          [
            29.509200813899085,
            40.78973299628226
          ],
          [
            29.509213266583725,
            40.789734795003376
          ],
          [
            29.509227241263154,
            40.7897383924456
          ],
          [
            29.509240828958106,
            40.789743522692255
          ]
        ]
      }
    },
    {
      "type": "Feature",
      "properties": {
        "fid": 1,
        "tur": "yol",
        "not": null,
        "oneway": false
      },
      "geometry": {
        "type": "LineString",
        "coordinates": [
          [
            29.509014,
            40.790343
          ],
          [
            29.50878441520948,
            40.790190977862714
          ],
          [
            29.50863414336985,
            40.79009147357595
          ],
          [
            29.5085879,
            40.7900609
          ],
          [
            29.50846651163905,
            40.789980474457344
          ],
          [
            29.508453917753474,
            40.78997213527513
          ],
          [
            29.50844577826349,
            40.78996576523949
          ],
          [
            29.508439231282413,
            40.78995992604013
          ],
          [
            29.508434276810252,
            40.78995037098668
          ],
          [
            29.50843179957417,
            40.78994293927843
          ],
          [
            29.508430384010694,
            40.78993550757019
          ],
          [
            29.508430737901563,
            40.78992595251673
          ],
          [
            29.508432861246774,
            40.78991533579067
          ],
          [
            29.5084371079372,
            40.78990224182852
          ],
          [
            29.50844560131805,
            40.78988985564811
          ],
          [
            29.5085997,
            40.789756
          ],
          [
            29.5086962,
            40.7896722
          ],
          [
            29.50883346571024,
            40.78955295154102
          ],
          [
            29.508845851890655,
            40.789544104269304
          ],
          [
            29.508855760834983,
            40.7895379111791
          ],
          [
            29.5088640772704,
            40.78953401837954
          ],
          [
            29.508873809269286,
            40.78953224892522
          ],
          [
            29.50888513377709,
            40.78953189503435
          ],
          [
            29.508895573557716,
            40.789532071979785
          ],
          [
            29.508907075010953,
            40.78953260281609
          ],
          [
            29.508919107300493,
            40.78953508005217
          ],
          [
            29.508930254862857,
            40.78953932674259
          ],
          [
            29.508940871588923,
            40.789543750378456
          ],
          [
            29.509059509394028,
            40.789622759689166
          ],
          [
            29.509164711722104,
            40.78969282136486
          ],
          [
            29.509240828958106,
            40.789743522692255
          ],
          [
            29.509364655904267,
            40.78982597834629
          ],
          [
            29.50937235303066,
            40.78983314463639
          ],
          [
            29.509376953611955,
            40.78984446914419
          ],
          [
            29.50937801528456,
            40.7898568553246
          ],
          [
            29.509376953611955,
            40.7898671181598
          ],
          [
            29.509373414703266,
            40.78987915044933
          ],
          [
            29.509367044667627,
            40.78989189052061
          ],
          [
            29.50935996685025,
            40.78989896833799
          ],
          [
            29.509305426715567,
            40.78994808894708
          ],
          [
            29.50921641241504,
            40.79002825810481
          ],
          [
            29.5091633,
            40.7900761
          ],
          [
            29.50910195759823,
            40.79013133981424
          ],
          [
            29.50901695008933,
            40.79020790032585
          ],
          [
            29.508968209658466,
            40.79025179753413
          ],
          [
            29.50895051511502,
            40.790260290914986
          ],
          [
            29.508928573881157,
            40.790262414260205
          ],
          [
            29.5088974314847,
            40.79025462866109
          ],
          [
            29.50886377095235,
            40.790243524155564
          ]
        ]
      }
    },
    {
      "type": "Feature",
      "properties": {
        "fid": 2,
        "tur": "yol",
        "not": null,
        "oneway": true
      },
      "geometry": {
        "type": "LineString",
        "coordinates": [
          [
            29.508598106164236,
            40.78982473972822
          ],
          [
            29.508656498157585,
            40.78986508328726
          ]
        ]
      }
    },
    {
      "type": "Feature",
      "properties": {
        "fid": 3,
        "tur": "yol",
        "not": null,
        "tunnel": true
      },
      "geometry": {
        "type": "LineString",
        "coordinates": [
          [
            29.508701796188785,
            40.78986685274162
          ],
          [
            29.508837690282398,
            40.7897479454097
          ]
        ]
      }
    },
    {
      "type": "Feature",
      "properties": {
        "fid": 4,
        "tur": "yol",
        "not": null,
        "oneway": true
      },
      "geometry": {
        "type": "LineString",
        "coordinates": [
          [
            29.50880796344942,
            40.78965381043859
          ],
          [
            29.508865647661032,
            40.78969486177937
          ]
        ]
      }
    },
    {
      "type": "Feature",
      "properties": {
        "fid": 5,
        "tur": "yol",
        "not": null,
        "oneway": false
      },
      "geometry": {
        "type": "LineString",
        "coordinates": [
          [
            29.5089771232847,
            40.78976847108007
          ],
          [
            29.508941527120278,
            40.789744410982145
          ],
          [
            29.508932058446963,
            40.78973800164863
          ]
        ]
      }
    },
    {
      "type": "Feature",
      "properties": {
        "fid": 6,
        "tur": "yol",
        "not": null,
        "oneway": true
      },
      "geometry": {
        "type": "LineString",
        "coordinates": [
          [
            29.50890174452964,
            40.78969096897981
          ],
          [
            29.50890849629021,
            40.78968517604915
          ],
          [
            29.508961552086465,
            40.789639654803835
          ]
        ]
      }
    },
    {
      "type": "Feature",
      "properties": {
        "fid": 7,
        "tur": "yol",
        "not": null,
        "oneway": true
      },
      "geometry": {
        "type": "LineString",
        "coordinates": [
          [
            29.509180256643372,
            40.789765639953124
          ],
          [
            29.509159377082113,
            40.789784396169175
          ]
        ]
      }
    },
    {
      "type": "Feature",
      "properties": {
        "fid": 8,
        "tur": "yol",
        "not": null,
        "oneway": true
      },
      "geometry": {
        "type": "LineString",
        "coordinates": [
          [
            29.509206181646483,
            40.78996109703437
          ],
          [
            29.509157510922705,
            40.78992618661993
          ]
        ]
      }
    },
    {
      "type": "Feature",
      "properties": {
        "fid": 9,
        "tur": "yol",
        "not": null,
        "oneway": true
      },
      "geometry": {
        "type": "LineString",
        "coordinates": [
          [
            29.50888536258242,
            40.78998224713947
          ],
          [
            29.508960279822162,
            40.78991548415711
          ]
        ]
      }
    },
    {
      "type": "Feature",
      "properties": {
        "fid": 10,
        "tur": "yol",
        "not": null,
        "oneway": true
      },
      "geometry": {
        "type": "LineString",
        "coordinates": [
          [
            29.509003344493976,
            40.790133865362755
          ],
          [
            29.508893262019253,
            40.79006047704627
          ]
        ]
      }
    },
    {
      "type": "Feature",
      "properties": {
        "fid": 11,
        "tur": "yol",
        "not": null,
        "oneway": true
      },
      "geometry": {
        "type": "LineString",
        "coordinates": [
          [
            29.508789804878656,
            40.7901129700782
          ],
          [
            29.508846375039276,
            40.79006200596953
          ]
        ]
      }
    },
    {
      "type": "Feature",
      "properties": {
        "fid": 12,
        "tur": "yol",
        "not": null,
        "oneway": true
      },
      "geometry": {
        "type": "LineString",
        "coordinates": [
          [
            29.508740369693246,
            40.789921854670695
          ],
          [
            29.508741790388292,
            40.78992282995865
          ],
          [
            29.508834653294283,
            40.789986579088705
          ]
        ]
      }
    },
    {
      "type": "Feature",
      "properties": {
        "fid": 13,
        "tur": "yol",
        "not": null
      },
      "geometry": {
        "type": "LineString",
        "coordinates": [
          [
            29.508636816994912,
            40.78992175911288
          ],
          [
            29.508583814321895,
            40.789969665375025
          ]
        ]
      }
    },
    {
      "type": "Feature",
      "properties": {
        "fid": 14,
        "tur": "yol",
        "not": null,
        "oneway": false
      },
      "geometry": {
        "type": "LineString",
        "coordinates": [
          [
            29.509169232667706,
            40.79011322489876
          ],
          [
            29.509223,
            40.790149
          ]
        ]
      }
    },
    {
      "type": "Feature",
      "properties": {
        "fid": 15,
        "tur": "yol",
        "not": null,
        "oneway": true
      },
      "geometry": {
        "type": "LineString",
        "coordinates": [
          [
            29.508656498157585,
            40.78986508328726
          ],
          [
            29.508668191774333,
            40.7898717824339
          ],
          [
            29.508674944518734,
            40.78987369358797
          ],
          [
            29.508679403878244,
            40.789873820998245
          ],
          [
            29.508686666263728,
            40.789872929126346
          ],
          [
            29.508693036777313,
            40.78987203725444
          ],
          [
            29.508701796188785,
            40.78986685274162
          ]
        ]
      }
    },
    {
      "type": "Feature",
      "properties": {
        "fid": 16,
        "tur": "yol",
        "not": null,
        "oneway": true
      },
      "geometry": {
        "type": "LineString",
        "coordinates": [
          [
            29.508865647661032,
            40.78969486177937
          ],
          [
            29.508871411157653,
            40.78969875928497
          ],
          [
            29.508876125337704,
            40.78970143490067
          ],
          [
            29.508880202466397,
            40.78970207195203
          ],
          [
            29.508884534415632,
            40.7897021993623
          ],
          [
            29.50888886636487,
            40.789700797849314
          ],
          [
            29.50889498205791,
            40.78969672072062
          ],
          [
            29.50890174452964,
            40.78969096897981
          ]
        ]
      }
    },
    {
      "type": "Feature",
      "properties": {
        "fid": 17,
        "tur": "yol",
        "not": null,
        "oneway": false
      },
      "geometry": {
        "type": "LineString",
        "coordinates": [
          [
            29.508871411157653,
            40.78969875928497
          ],
          [
            29.508922882916323,
            40.789733254620266
          ],
          [
            29.508932058446963,
            40.78973800164863
          ]
        ]
      }
    },
    {
      "type": "Feature",
      "properties": {
        "fid": 18,
        "tur": "yol",
        "not": null,
        "oneway": true
      },
      "geometry": {
        "type": "LineString",
        "coordinates": [
          [
            29.508922882916323,
            40.789733254620266
          ],
          [
            29.508900665750197,
            40.789728333398514
          ],
          [
            29.508887239892818,
            40.7897269478118
          ],
          [
            29.508874244045106,
            40.789727664494585
          ],
          [
            29.50886121833592,
            40.789729210339885
          ],
          [
            29.508851789975814,
            40.789735071212384
          ],
          [
            29.508837690282398,
            40.7897479454097
          ]
        ]
      }
    },
    {
      "type": "Feature",
      "properties": {
        "fid": 19,
        "tur": "yol",
        "not": null,
        "oneway": true
      },
      "geometry": {
        "type": "LineString",
        "coordinates": [
          [
            29.508961552086465,
            40.789639654803835
          ],
          [
            29.50897079116955,
            40.78963135925124
          ],
          [
            29.50897996470911,
            40.78962575319929
          ],
          [
            29.508991431633557,
            40.78962269535277
          ],
          [
            29.509006466045616,
            40.78962065678842
          ],
          [
            29.50902201009876,
            40.78961963750625
          ],
          [
            29.509037554151902,
            40.78962065678842
          ],
          [
            29.509059509394028,
            40.789622759689166
          ]
        ]
      }
    },
    {
      "type": "Feature",
      "properties": {
        "fid": 20,
        "tur": "kavsak",
        "not": null,
        "oneway": true
      },
      "geometry": {
        "type": "LineString",
        "coordinates": [
          [
            29.509016913687887,
            40.78988821835893
          ],
          [
            29.509026087227443,
            40.78989407923143
          ],
          [
            29.50903882825461,
            40.78989764671904
          ],
          [
            29.509053353025582,
            40.789898920821756
          ],
          [
            29.509072719386875,
            40.789898920821756
          ],
          [
            29.509086224875674,
            40.789895353334146
          ],
          [
            29.509101514108274,
            40.789889747282196
          ],
          [
            29.50911425513544,
            40.78988159302481
          ],
          [
            29.509122664213372,
            40.78986936163873
          ],
          [
            29.509126996162607,
            40.789851779021234
          ],
          [
            29.509127505803693,
            40.78983623496809
          ],
          [
            29.509121390110653,
            40.789819416812236
          ],
          [
            29.509113235853263,
            40.78980794988777
          ],
          [
            29.509105336416418,
            40.78980183419473
          ],
          [
            29.509091830927623,
            40.78979622814279
          ],
          [
            29.50908036400317,
            40.7897939347579
          ],
          [
            29.509070808232796,
            40.78979355252709
          ],
          [
            29.509058704256987,
            40.789794444398986
          ],
          [
            29.509046855101722,
            40.789796355553065
          ],
          [
            29.50903653486972,
            40.78979928598931
          ],
          [
            29.50902468571445,
            40.78980489204126
          ],
          [
            29.50901538476462,
            40.78981215442675
          ],
          [
            29.50900786755859,
            40.789829099992886
          ],
          [
            29.509005828994244,
            40.789847447072006
          ],
          [
            29.509006848276417,
            40.789865794151126
          ],
          [
            29.509016913687887,
            40.78988821835893
          ]
        ]
      }
    },
    {
      "type": "Feature",
      "properties": {
        "fid": 21,
        "tur": "yol",
        "not": null,
        "oneway": true
      },
      "geometry": {
        "type": "LineString",
        "coordinates": [
          [
            29.508960279822162,
            40.78991548415711
          ],
          [
            29.508966172547183,
            40.7899079032459
          ],
          [
            29.50897203341968,
            40.78989847488579
          ],
          [
            29.50897662018946,
            40.78989083026949
          ],
          [
            29.508984647036574,
            40.78986853347194
          ],
          [
            29.508993820576134,
            40.789846618905216
          ],
          [
            29.50900786755859,
            40.789829099992886
          ]
        ]
      }
    },
    {
      "type": "Feature",
      "properties": {
        "fid": 22,
        "tur": "yol",
        "not": null,
        "oneway": false
      },
      "geometry": {
        "type": "LineString",
        "coordinates": [
          [
            29.5089771232847,
            40.78976847108007
          ],
          [
            29.50899433021722,
            40.78977424987091
          ],
          [
            29.509011148373084,
            40.7897783269996
          ],
          [
            29.509035101504157,
            40.78978036556395
          ],
          [
            29.509057016070884,
            40.789782913769386
          ],
          [
            29.50907587279109,
            40.78978826500079
          ],
          [
            29.509105336416418,
            40.78980183419473
          ]
        ]
      }
    },
    {
      "type": "Feature",
      "properties": {
        "fid": 23,
        "tur": "yol",
        "not": null,
        "oneway": true
      },
      "geometry": {
        "type": "LineString",
        "coordinates": [
          [
            29.509159377082113,
            40.789784396169175
          ],
          [
            29.50915206413355,
            40.78979463551436
          ],
          [
            29.509146967722682,
            40.789807376541525
          ],
          [
            29.509144929158335,
            40.78982113685087
          ],
          [
            29.50914136167073,
            40.78984254177651
          ],
          [
            29.509134226695515,
            40.78986139849672
          ],
          [
            29.50911425513544,
            40.78988159302481
          ]
        ]
      }
    },
    {
      "type": "Feature",
      "properties": {
        "fid": 24,
        "tur": "yol",
        "not": null,
        "oneway": true
      },
      "geometry": {
        "type": "LineString",
        "coordinates": [
          [
            29.509157510922705,
            40.78992618661993
          ],
          [
            29.50914059720909,
            40.789916439734064
          ],
          [
            29.50911613443693,
            40.78990879511777
          ],
          [
            29.50908708489499,
            40.789904717989074
          ],
          [
            29.509053353025582,
            40.789898920821756
          ]
        ]
      }
    },
    {
      "type": "Feature",
      "properties": {
        "fid": 25,
        "tur": "yol",
        "not": null,
        "oneway": true
      },
      "geometry": {
        "type": "LineString",
        "coordinates": [
          [
            29.5091633,
            40.7900761
          ],
          [
            29.509156396082776,
            40.790087933959725
          ],
          [
            29.50915588644169,
            40.790094049652765
          ],
          [
            29.509156905723867,
            40.79010096165998
          ],
          [
            29.509162830301495,
            40.79010902035969
          ],
          [
            29.509169232667706,
            40.79011322489876
          ]
        ]
      }
    },
    {
      "type": "Feature",
      "properties": {
        "fid": 26,
        "tur": "yol",
        "not": null,
        "oneway": true
      },
      "geometry": {
        "type": "LineString",
        "coordinates": [
          [
            29.508668191774333,
            40.7898717824339
          ],
          [
            29.508740369693246,
            40.789921854670695
          ]
        ]
      }
    },
    {
      "type": "Feature",
      "properties": {
        "fid": 27,
        "tur": "yol",
        "not": null,
        "oneway": true
      },
      "geometry": {
        "type": "LineString",
        "coordinates": [
          [
            29.508741790388292,
            40.78992282995865
          ],
          [
            29.508723328569378,
            40.7899144967274
          ],
          [
            29.508709695670305,
            40.78991258557332
          ],
          [
            29.50869491607879,
            40.78991105665006
          ],
          [
            29.50867809792293,
            40.78991105665006
          ],
          [
            29.50865516407403,
            40.78991411449658
          ],
          [
            29.508636816994912,
            40.78992175911288
          ]
        ]
      }
    },
    {
      "type": "Feature",
      "properties": {
        "fid": 28,
        "tur": "yol",
        "not": null,
        "oneway": true
      },
      "geometry": {
        "type": "LineString",
        "coordinates": [
          [
            29.508834653294283,
            40.789986579088705
          ],
          [
            29.50884207494257,
            40.789991834762304
          ],
          [
            29.508850866251315,
            40.78999527483964
          ],
          [
            29.508862460586037,
            40.789995657070456
          ],
          [
            29.508870017607787,
            40.78999454223052
          ],
          [
            29.50887392751049,
            40.78999157994176
          ],
          [
            29.50888536258242,
            40.78998224713947
          ]
        ]
      }
    },
    {
      "type": "Feature",
      "properties": {
        "fid": 29,
        "tur": "yol",
        "not": null,
        "oneway": false
      },
      "geometry": {
        "type": "LineString",
        "coordinates": [
          [
            29.50884207494257,
            40.789991834762304
          ],
          [
            29.50889561910925,
            40.79002715926011
          ],
          [
            29.5089151,
            40.79004
          ],
          [
            29.509030036945852,
            40.79011583680921
          ]
        ]
      }
    },
    {
      "type": "Feature",
      "properties": {
        "fid": 30,
        "tur": "yol",
        "not": null
      },
      "geometry": {
        "type": "LineString",
        "coordinates": [
          [
            29.50875941752883,
            40.79010016534578
          ],
          [
            29.508825161229012,
            40.79003696985103
          ]
        ]
      }
    },
    {
      "type": "Feature",
      "properties": {
        "fid": 31,
        "tur": "yol",
        "not": null,
        "oneway": true
      },
      "geometry": {
        "type": "LineString",
        "coordinates": [
          [
            29.50889561910925,
            40.79002715926011
          ],
          [
            29.508885298877246,
            40.79002563033685
          ],
          [
            29.50887344972198,
            40.790025120695766
          ],
          [
            29.508864403592693,
            40.790025120695766
          ],
          [
            29.508855612283945,
            40.79002563033685
          ],
          [
            29.508850261052537,
            40.79002613997794
          ],
          [
            29.50884299866705,
            40.790027923721745
          ],
          [
            29.508838029666457,
            40.790029452645
          ],
          [
            29.508832678435045,
            40.79003149120935
          ],
          [
            29.508828856126893,
            40.79003314754288
          ],
          [
            29.508825161229012,
            40.79003696985103
          ]
        ]
      }
    },
    {
      "type": "Feature",
      "properties": {
        "fid": 32,
        "tur": "yol",
        "not": null,
        "oneway": true
      },
      "geometry": {
        "type": "LineString",
        "coordinates": [
          [
            29.5085879,
            40.7900609
          ],
          [
            29.50857630507901,
            40.790045824864904
          ],
          [
            29.508572737591404,
            40.790037415786976
          ],
          [
            29.5085709538476,
            40.79002416511871
          ],
          [
            29.50856942492434,
            40.79000581803959
          ],
          [
            29.508571973129772,
            40.789992057730245
          ],
          [
            29.508583814321895,
            40.789969665375025
          ]
        ]
      }
    },
    {
      "type": "Feature",
      "properties": {
        "fid": 33,
        "tur": "yol",
        "not": null
      },
      "geometry": {
        "type": "LineString",
        "coordinates": [
          [
            29.508851789975814,
            40.789735071212384
          ],
          [
            29.50888886636487,
            40.789700797849314
          ]
        ]
      }
    },
    {
      "type": "Feature",
      "properties": {
        "fid": 34,
        "tur": "yol",
        "not": null
      },
      "geometry": {
        "type": "LineString",
        "coordinates": [
          [
            29.508828856126893,
            40.79003314754288
          ],
          [
            29.508870017607787,
            40.78999454223052
          ]
        ]
      }
    },
    {
      "type": "Feature",
      "properties": {
        "fid": 35,
        "tur": "yol",
        "not": null,
        "oneway": false
      },
      "geometry": {
        "type": "LineString",
        "coordinates": [
          [
            29.50901695008933,
            40.79020790032585
          ],
          [
            29.509024629972444,
            40.7901879510229
          ],
          [
            29.50903278422983,
            40.79016960394378
          ],
          [
            29.50903584207636,
            40.79015074722357
          ],
          [
            29.509037880640708,
            40.79014055440184
          ],
          [
            29.509038008050975,
            40.79012806819521
          ],
          [
            29.509035587255813,
            40.79012080580973
          ],
          [
            29.509030036945852,
            40.79011583680921
          ]
        ]
      }
    },
    {
      "type": "Feature",
      "properties": {
        "fid": 36,
        "tur": "yol",
        "not": null,
        "oneway": true
      },
      "geometry": {
        "type": "LineString",
        "coordinates": [
          [
            29.50878441520948,
            40.790190977862714
          ],
          [
            29.508760725474872,
            40.79016534764437
          ],
          [
            29.508753080858572,
            40.79014751020633
          ],
          [
            29.50875053265314,
            40.79012916312721
          ],
          [
            29.508753080858572,
            40.790114383535695
          ],
          [
            29.50875941752883,
            40.79010016534578
          ]
        ]
      }
    },
    {
      "type": "Feature",
      "properties": {
        "fid": 37,
        "tur": "yol",
        "not": null
      },
      "geometry": {
        "type": "LineString",
        "coordinates": [
          [
            29.508636816994912,
            40.78992175911288
          ],
          [
            29.508693036777313,
            40.78987203725444
          ]
        ]
      }
    },
    {
      "type": "Feature",
      "properties": {
        "fid": 38,
        "tur": "yol",
        "not": null,
        "oneway": true
      },
      "geometry": {
        "type": "LineString",
        "coordinates": [
          [
            29.509164711722104,
            40.78969282136486
          ],
          [
            29.509176337781053,
            40.789710492974464
          ],
          [
            29.509185352057777,
            40.789729604515195
          ],
          [
            29.50918802767348,
            40.78974412928616
          ],
          [
            29.509185925404005,
            40.78975648808252
          ],
          [
            29.509183249788293,
            40.78976059706379
          ],
          [
            29.509180256643372,
            40.789765639953124
          ]
        ]
      }
    },
    {
      "type": "Feature",
      "properties": {
        "fid": 39,
        "tur": "yol",
        "not": null,
        "oneway": true
      },
      "geometry": {
        "type": "LineString",
        "coordinates": [
          [
            29.509305426715567,
            40.78994808894708
          ],
          [
            29.509291293698663,
            40.78995709555522
          ],
          [
            29.509275494824976,
            40.78996524981261
          ],
          [
            29.509256192168824,
            40.789971556621055
          ],
          [
            29.509243196321112,
            40.78997334036486
          ],
          [
            29.509229690832317,
            40.7899735951854
          ],
          [
            29.50921879725409,
            40.78996932694131
          ],
          [
            29.509206181646483,
            40.78996109703437
          ]
        ]
      }
    },
    {
      "type": "Feature",
      "properties": {
        "fid": 40,
        "tur": "yol",
        "not": null,
        "oneway": true
      },
      "geometry": {
        "type": "LineString",
        "coordinates": [
          [
            29.5086962,
            40.7896722
          ],
          [
            29.508706416846554,
            40.789666154199864
          ],
          [
            29.508714061462854,
            40.789663096353344
          ],
          [
            29.508729286990313,
            40.78965761771168
          ],
          [
            29.508745404389686,
            40.789652202775144
          ],
          [
            29.508763624058535,
            40.78964908122349
          ],
          [
            29.508780187393853,
            40.78964933604402
          ],
          [
            29.508794966985366,
            40.78964971827484
          ],
          [
            29.50880796344942,
            40.78965381043859
          ]
        ]
      }
    },
    {
      "type": "Feature",
      "properties": {
        "fid": 41,
        "tur": "yol",
        "not": null,
        "tunnel": true,
        "oneway": true
      },
      "geometry": {
        "type": "LineString",
        "coordinates": [
          [
            29.508868291596713,
            40.78976292230119
          ],
          [
            29.508725846912995,
            40.789886765085264
          ]
        ]
      }
    },
    {
      "type": "Feature",
      "properties": {
        "fid": 42,
        "tur": "yol",
        "not": null,
        "oneway": true
      },
      "geometry": {
        "type": "LineString",
        "coordinates": [
          [
            29.508959517351222,
            40.78979305483046
          ],
          [
            29.50892040239782,
            40.78976406899365
          ]
        ]
      }
    },
    {
      "type": "Feature",
      "properties": {
        "fid": 43,
        "tur": "yol",
        "not": null,
        "oneway": true
      },
      "geometry": {
        "type": "LineString",
        "coordinates": [
          [
            29.50892040239782,
            40.78976406899365
          ],
          [
            29.508911674794213,
            40.789759673339276
          ],
          [
            29.5089079161912,
            40.78975769848007
          ],
          [
            29.508904221293317,
            40.78975737995439
          ],
          [
            29.508900144164624,
            40.78975725254411
          ],
          [
            29.508893391420223,
            40.78975737995439
          ],
          [
            29.508887530547728,
            40.789757762185204
          ],
          [
            29.508881032623872,
            40.78975814441602
          ],
          [
            29.50887721031572,
            40.78975903628792
          ],
          [
            29.508871859084312,
            40.78976120226254
          ],
          [
            29.508868291596713,
            40.78976292230119
          ]
        ]
      }
    },
    {
      "type": "Feature",
      "properties": {
        "fid": 44,
        "tur": "yol",
        "not": null,
        "oneway": true
      },
      "geometry": {
        "type": "LineString",
        "coordinates": [
          [
            29.508725846912995,
            40.789886765085264
          ],
          [
            29.508722215720233,
            40.78989116073962
          ],
          [
            29.508720686796973,
            40.78989600232994
          ],
          [
            29.50872119643806,
            40.78989931499701
          ],
          [
            29.50872272536132,
            40.789903009894886
          ],
          [
            29.508725018746212,
            40.789907150728716
          ],
          [
            29.508728331413266,
            40.78991059080605
          ],
          [
            29.508740369693246,
            40.789921854670695
          ]
        ]
      }
    },
    {
      "type": "Feature",
      "properties": {
        "fid": 45,
        "tur": "yol",
        "not": null,
        "oneway": true
      },
      "geometry": {
        "type": "LineString",
        "coordinates": [
          [
            29.508725846912995,
            40.789886765085264
          ],
          [
            29.508668678615212,
            40.78993776145117
          ],
          [
            29.508667429303408,
            40.78993887588635
          ]
        ]
      }
    },
    {
      "type": "Feature",
      "properties": {
        "fid": 46,
        "tur": "yol",
        "not": null,
        "oneway": true
      },
      "geometry": {
        "type": "LineString",
        "coordinates": [
          [
            29.508667429303408,
            40.78993887588635
          ],
          [
            29.508665187678893,
            40.78994097019262
          ],
          [
            29.508599647038878,
            40.790002581022186
          ]
        ]
      }
    },
    {
      "type": "Feature",
      "properties": {
        "fid": 47,
        "tur": "yol",
        "not": null,
        "oneway": true
      },
      "geometry": {
        "type": "LineString",
        "coordinates": [
          [
            29.50846651163905,
            40.789980474457344
          ],
          [
            29.50849262241067,
            40.78999124150797
          ],
          [
            29.508510459848708,
            40.78999901353456
          ],
          [
            29.508520397849896,
            40.79000105209891
          ],
          [
            29.50853415815924,
            40.7900042373557
          ],
          [
            29.508545242852872,
            40.79000691297141
          ],
          [
            29.508557729059497,
            40.790009461176844
          ],
          [
            29.5085662655477,
            40.7900100982282
          ],
          [
            29.50857696801052,
            40.79000997081793
          ],
          [
            29.508586523780895,
            40.790009206356295
          ],
          [
            29.508594295807466,
            40.79000602109951
          ],
          [
            29.508599647038878,
            40.790002581022186
          ]
        ]
      }
    },
    {
      "type": "Feature",
      "properties": {
        "fid": 48,
        "tur": "yol",
        "not": null,
        "oneway": true
      },
      "geometry": {
        "type": "LineString",
        "coordinates": [
          [
            29.508638188646042,
            40.78989268966284
          ],
          [
            29.50863098598411,
            40.789887537509934
          ],
          [
            29.508586205255202,
            40.78985548586351
          ]
        ]
      }
    },
    {
      "type": "Feature",
      "properties": {
        "fid": 49,
        "tur": "yol",
        "not": null,
        "oneway": true
      },
      "geometry": {
        "type": "LineString",
        "coordinates": [
          [
            29.508738842760668,
            40.78967532773937
          ],
          [
            29.508596652897484,
            40.789800699446694
          ]
        ]
      }
    },
    {
      "type": "Feature",
      "properties": {
        "fid": 50,
        "tur": "yol",
        "not": null,
        "oneway": true
      },
      "geometry": {
        "type": "LineString",
        "coordinates": [
          [
            29.508596652897484,
            40.789800699446694
          ],
          [
            29.508593881724078,
            40.78980315209442
          ],
          [
            29.508591811307163,
            40.78980554103702
          ],
          [
            29.508591046845535,
            40.78981127449924
          ],
          [
            29.50859295799961,
            40.789818664295
          ],
          [
            29.508594232102325,
            40.78982172214152
          ],
          [
            29.508598106164236,
            40.78982473972822
          ]
        ]
      }
    },
    {
      "type": "Feature",
      "properties": {
        "fid": 51,
        "tur": "yol",
        "not": null,
        "oneway": true
      },
      "geometry": {
        "type": "LineString",
        "coordinates": [
          [
            29.508586205255202,
            40.78985548586351
          ],
          [
            29.508581682190556,
            40.78984901979223
          ],
          [
            29.508579898446754,
            40.78984035589375
          ],
          [
            29.50857792358754,
            40.78982965343093
          ],
          [
            29.508576219475163,
            40.789818966894394
          ],
          [
            29.508576729116246,
            40.789806862918574
          ],
          [
            29.508578130629235,
            40.78979501376331
          ],
          [
            29.50857991437304,
            40.789783801659404
          ],
          [
            29.508583609270918,
            40.789774882940385
          ],
          [
            29.508590107194774,
            40.789766728683
          ],
          [
            29.5085997,
            40.789756
          ]
        ]
      }
    },
    {
      "type": "Feature",
      "properties": {
        "fid": 52,
        "tur": "yol",
        "not": null,
        "oneway": true
      },
      "geometry": {
        "type": "LineString",
        "coordinates": [
          [
            29.508817725645113,
            40.790012694212464
          ],
          [
            29.508714268504516,
            40.789939305895984
          ]
        ]
      }
    },
    {
      "type": "Feature",
      "properties": {
        "fid": 53,
        "tur": "yol",
        "not": null,
        "oneway": true
      },
      "geometry": {
        "type": "LineString",
        "coordinates": [
          [
            29.508714268504516,
            40.789939305895984
          ],
          [
            29.508638188646042,
            40.78989268966284
          ]
        ]
      }
    },
    {
      "type": "Feature",
      "properties": {
        "fid": 54,
        "tur": "yol",
        "not": null,
        "oneway": true
      },
      "geometry": {
        "type": "LineString",
        "coordinates": [
          [
            29.508714268504516,
            40.789939305895984
          ],
          [
            29.508705680255876,
            40.789934870425874
          ],
          [
            29.508699118626875,
            40.789933086682076
          ],
          [
            29.508688288753785,
            40.78993219481018
          ],
          [
            29.508680007086127,
            40.789933596323166
          ],
          [
            29.508668678615212,
            40.78993776145117
          ]
        ]
      }
    },
    {
      "type": "Feature",
      "properties": {
        "fid": 55,
        "tur": "yol",
        "not": null,
        "oneway": true
      },
      "geometry": {
        "type": "LineString",
        "coordinates": [
          [
            29.508701796188785,
            40.78986685274162
          ],
          [
            29.508694531857103,
            40.78987721727794
          ],
          [
            29.50869211106195,
            40.78988384261207
          ],
          [
            29.508692365882485,
            40.78989874961387
          ],
          [
            29.5086927481133,
            40.78990588458908
          ],
          [
            29.50869389480574,
            40.78991263733348
          ],
          [
            29.508694914087915,
            40.789917224103256
          ],
          [
            29.508697080062536,
            40.78992232051412
          ],
          [
            29.508699118626883,
            40.789926397642816
          ],
          [
            29.50870281352476,
            40.78993047477151
          ],
          [
            29.508714268504516,
            40.789939305895984
          ]
        ]
      }
    },
    {
      "type": "Feature",
      "properties": {
        "fid": 56,
        "tur": "yol",
        "not": null,
        "oneway": true
      },
      "geometry": {
        "type": "LineString",
        "coordinates": [
          [
            29.508636816994912,
            40.78992175911288
          ],
          [
            29.508639618030013,
            40.7899169692827
          ],
          [
            29.508640382491645,
            40.7899111084102
          ],
          [
            29.508639618030013,
            40.7899052475377
          ],
          [
            29.508638216517024,
            40.78990066076793
          ],
          [
            29.50863579572186,
            40.78989416284407
          ],
          [
            29.50863098598411,
            40.789887537509934
          ]
        ]
      }
    },
    {
      "type": "Feature",
      "properties": {
        "fid": 57,
        "tur": "yol",
        "not": null,
        "oneway": true
      },
      "geometry": {
        "type": "LineString",
        "coordinates": [
          [
            29.508825161229012,
            40.79003696985103
          ],
          [
            29.508827038539632,
            40.790032402988835
          ],
          [
            29.508827293360174,
            40.7900289629115
          ],
          [
            29.508826911129358,
            40.79002590506498
          ],
          [
            29.508825637026643,
            40.790021573115745
          ],
          [
            29.508823980693112,
            40.79001838785895
          ],
          [
            29.50882136878254,
            40.7900155529804
          ],
          [
            29.508817725645113,
            40.790012694212464
          ]
        ]
      }
    },
    {
      "type": "Feature",
      "properties": {
        "fid": 58,
        "tur": "yol",
        "not": null,
        "oneway": true
      },
      "geometry": {
        "type": "LineString",
        "coordinates": [
          [
            29.508665187678893,
            40.78994097019262
          ],
          [
            29.50866886665049,
            40.789933289742166
          ],
          [
            29.50867161393447,
            40.78992746072224
          ],
          [
            29.50867398695078,
            40.78992200198843
          ],
          [
            29.508678064079472,
            40.78991308326943
          ],
          [
            29.508678764835967,
            40.78990773203802
          ],
          [
            29.508679529297602,
            40.789902635627136
          ],
          [
            29.508679720413006,
            40.789895436946786
          ],
          [
            29.50867921077192,
            40.7898881745613
          ],
          [
            29.508676917387028,
            40.78988205886826
          ],
          [
            29.50867487882268,
            40.789878491380655
          ],
          [
            29.508668191774333,
            40.7898717824339
          ]
        ]
      }
    },
    {
      "type": "Feature",
      "properties": {
        "fid": 59,
        "tur": "yol",
        "not": null,
        "oneway": false
      },
      "geometry": {
        "type": "LineString",
        "coordinates": [
          [
            29.508993667285527,
            40.7896530428865
          ],
          [
            29.508933274816755,
            40.789706555200596
          ]
        ]
      }
    },
    {
      "type": "Feature",
      "properties": {
        "fid": 60,
        "tur": "yol",
        "not": null,
        "oneway": true
      },
      "geometry": {
        "type": "LineString",
        "coordinates": [
          [
            29.508838863805437,
            40.78971735322111
          ],
          [
            29.508786498183778,
            40.78967798344716
          ]
        ]
      }
    },
    {
      "type": "Feature",
      "properties": {
        "fid": 61,
        "tur": "yol",
        "not": null
      },
      "geometry": {
        "type": "LineString",
        "coordinates": [
          [
            29.509134901571663,
            40.789763985380546
          ],
          [
            29.509150190804263,
            40.78974697610928
          ]
        ]
      }
    },
    {
      "type": "Feature",
      "properties": {
        "fid": 62,
        "tur": "yol",
        "not": null
      },
      "geometry": {
        "type": "LineString",
        "coordinates": [
          [
            29.50916490669064,
            40.789893036059475
          ],
          [
            29.509228165890526,
            40.78993641925697
          ]
        ]
      }
    },
    {
      "type": "Feature",
      "properties": {
        "fid": 63,
        "tur": "yol",
        "not": null,
        "oneway": true
      },
      "geometry": {
        "type": "LineString",
        "coordinates": [
          [
            29.508998062939884,
            40.7899272457174
          ],
          [
            29.508912825468137,
            40.790002927418776
          ]
        ]
      }
    },
    {
      "type": "Feature",
      "properties": {
        "fid": 64,
        "tur": "yol",
        "not": null,
        "oneway": true
      },
      "geometry": {
        "type": "LineString",
        "coordinates": [
          [
            29.508846375039276,
            40.79006200596953
          ],
          [
            29.50884923181629,
            40.79005873311775
          ],
          [
            29.508852671893624,
            40.790050992943755
          ],
          [
            29.508854391932292,
            40.79004401723138
          ],
          [
            29.508856303086368,
            40.7900367548459
          ],
          [
            29.508857210884543,
            40.79003006580663
          ],
          [
            29.508857784230774,
            40.79002051003626
          ],
          [
            29.508856828653737,
            40.79001286541995
          ],
          [
            29.508854153038033,
            40.79000541191906
          ],
          [
            29.50885052184529,
            40.79000025180306
          ],
          [
            29.50884207494257,
            40.789991834762304
          ]
        ]
      }
    },
    {
      "type": "Feature",
      "properties": {
        "fid": 65,
        "tur": "yol",
        "not": null,
        "oneway": true
      },
      "geometry": {
        "type": "LineString",
        "coordinates": [
          [
            29.508893262019253,
            40.79006047704627
          ],
          [
            29.50882136878254,
            40.7900155529804
          ]
        ]
      }
    },
    {
      "type": "Feature",
      "properties": {
        "fid": 66,
        "tur": "yol",
        "not": null,
        "oneway": true
      },
      "geometry": {
        "type": "LineString",
        "coordinates": [
          [
            29.508912825468137,
            40.790002927418776
          ],
          [
            29.508907808688694,
            40.790008183092475
          ],
          [
            29.508903986380542,
            40.79001582770877
          ],
          [
            29.50890494195758,
            40.79002385455589
          ],
          [
            29.50890876426573,
            40.79003111694137
          ],
          [
            29.5089151,
            40.79004
          ]
        ]
      }
    },
    {
      "type": "Feature",
      "properties": {
        "fid": 67,
        "tur": "yol",
        "not": null,
        "oneway": true
      },
      "geometry": {
        "type": "LineString",
        "coordinates": [
          [
            29.50910195759823,
            40.79013133981424
          ],
          [
            29.509088603864182,
            40.7901362304155
          ],
          [
            29.509077375833993,
            40.79013895381006
          ],
          [
            29.509063185514986,
            40.79014143831036
          ],
          [
            29.509053056398386,
            40.790142585002805
          ],
          [
            29.5090432139549,
            40.79014263278165
          ],
          [
            29.509031364799636,
            40.79014205943543
          ],
          [
            29.50901922897126,
            40.79013986160824
          ],
          [
            29.509011966585774,
            40.79013833268498
          ],
          [
            29.509003344493976,
            40.790133865362755
          ]
        ]
      }
    },
    {
      "type": "Feature",
      "properties": {
        "fid": 68,
        "tur": "yol",
        "not": null,
        "oneway": true
      },
      "geometry": {
        "type": "LineString",
        "coordinates": [
          [
            29.50863414336985,
            40.79009147357595
          ],
          [
            29.508656945826903,
            40.79009921374999
          ],
          [
            29.508668221635958,
            40.79010341828896
          ],
          [
            29.50867796852174,
            40.7901070494817
          ],
          [
            29.508686186484265,
            40.79010991621281
          ],
          [
            29.50869325775434,
            40.79011240071311
          ],
          [
            29.50870204906309,
            40.79011545855963
          ],
          [
            29.508712178179685,
            40.79011832529074
          ],
          [
            29.508723262873318,
            40.790121000906446
          ],
          [
            29.508735112028585,
            40.790123294291334
          ],
          [
            29.50874619672222,
            40.790124632099186
          ],
          [
            29.508759383685337,
            40.79012348540674
          ],
          [
            29.508768748340305,
            40.79012176536807
          ],
          [
            29.50878155307261,
            40.7901173697137
          ],
          [
            29.508789804878656,
            40.7901129700782
          ]
        ]
      }
    },
    {
      "type": "Feature",
      "properties": {
        "fid": 69,
        "tur": "yol",
        "not": null,
        "oneway": true
      },
      "geometry": {
        "type": "LineString",
        "coordinates": [
          [
            29.509086224875674,
            40.789895353334146
          ],
          [
            29.509070625578065,
            40.78990217675101
          ],
          [
            29.509061690932764,
            40.78990513903983
          ],
          [
            29.509054094095315,
            40.789906572405386
          ],
          [
            29.509046640594427,
            40.78990690685735
          ],
          [
            29.509030109111677,
            40.78990872245372
          ],
          [
            29.509018068841005,
            40.78991216253105
          ],
          [
            29.508998062939884,
            40.7899272457174
          ]
        ]
      }
    },
    {
      "type": "Feature",
      "properties": {
        "fid": 70,
        "tur": "yol",
        "not": null,
        "oneway": true
      },
      "geometry": {
        "type": "LineString",
        "coordinates": [
          [
            29.509121390110653,
            40.789819416812236
          ],
          [
            29.50913106582568,
            40.78983284963694
          ],
          [
            29.50913355032598,
            40.789840494253234
          ],
          [
            29.509133120316296,
            40.789852391187374
          ],
          [
            29.509134649239556,
            40.789856882399455
          ],
          [
            29.50913703818215,
            40.78986080026531
          ],
          [
            29.509143679442577,
            40.789867632641105
          ],
          [
            29.509149508462496,
            40.789873031651375
          ],
          [
            29.509155719713238,
            40.789879147344415
          ],
          [
            29.50915681862683,
            40.78988201407552
          ],
          [
            29.50915829977124,
            40.789885263037455
          ],
          [
            29.509160736492685,
            40.789888464220525
          ],
          [
            29.50916490669064,
            40.789893036059475
          ]
        ]
      }
    },
    {
      "type": "Feature",
      "properties": {
        "fid": 71,
        "tur": "yol",
        "not": null,
        "oneway": true
      },
      "geometry": {
        "type": "LineString",
        "coordinates": [
          [
            29.509134901571663,
            40.789763985380546
          ],
          [
            29.50912394677674,
            40.78977221827392
          ],
          [
            29.50911114204443,
            40.78977737838992
          ],
          [
            29.50910043958161,
            40.78978234739051
          ],
          [
            29.509087825964713,
            40.789786169698665
          ],
          [
            29.509071581155073,
            40.789790183122236
          ],
          [
            29.50906164315388,
            40.78979171204549
          ],
          [
            29.509046855101722,
            40.789796355553065
          ]
        ]
      }
    },
    {
      "type": "Feature",
      "properties": {
        "fid": 72,
        "tur": "yol",
        "not": null,
        "oneway": true
      },
      "geometry": {
        "type": "LineString",
        "coordinates": [
          [
            29.509006848276417,
            40.789865794151126
          ],
          [
            29.50900105956972,
            40.78985554459159
          ],
          [
            29.508997619492387,
            40.78984579770581
          ],
          [
            29.50899437053046,
            40.78983853532032
          ],
          [
            29.50898882818364,
            40.78983089070402
          ],
          [
            29.50898366806764,
            40.78982209939527
          ],
          [
            29.508976214566744,
            40.78981139693246
          ],
          [
            29.508969334412075,
            40.78980298785452
          ],
          [
            29.508964556526887,
            40.78979744550771
          ],
          [
            29.508959517351222,
            40.78979305483046
          ]
        ]
      }
    },
    {
      "type": "Feature",
      "properties": {
        "fid": 73,
        "tur": "yol",
        "not": null,
        "oneway": true
      },
      "geometry": {
        "type": "LineString",
        "coordinates": [
          [
            29.508933274816755,
            40.789706555200596
          ],
          [
            29.50893092021516,
            40.78970924574716
          ],
          [
            29.508930060195826,
            40.789712590266795
          ],
          [
            29.508929773522716,
            40.78971660369035
          ],
          [
            29.50893015575352,
            40.78972128601783
          ],
          [
            29.50893135022482,
            40.78972615946072
          ],
          [
            29.508932783590378,
            40.789731080682465
          ],
          [
            29.508934312513638,
            40.789734568538655
          ],
          [
            29.508937704812126,
            40.78973972865466
          ],
          [
            29.508941527120278,
            40.789744410982145
          ]
        ]
      }
    },
    {
      "type": "Feature",
      "properties": {
        "fid": 74,
        "tur": "yol",
        "not": null,
        "oneway": true
      },
      "geometry": {
        "type": "LineString",
        "coordinates": [
          [
            29.50921641241504,
            40.79002825810481
          ],
          [
            29.509223517904054,
            40.790014218158696
          ],
          [
            29.50922791355843,
            40.790005044619136
          ],
          [
            29.50923250032821,
            40.78999090207898
          ],
          [
            29.509236322636355,
            40.789977524000456
          ],
          [
            29.509237087097986,
            40.78996968826875
          ],
          [
            29.509237851559615,
            40.78996242588326
          ],
          [
            29.509237660444207,
            40.78995554572859
          ],
          [
            29.50923670486717,
            40.78994847445851
          ],
          [
            29.509232691443614,
            40.78994121207303
          ],
          [
            29.509228165890526,
            40.78993641925697
          ]
        ]
      }
    },
    {
      "type": "Feature",
      "properties": {
        "fid": 75,
        "tur": "yol",
        "not": null
      },
      "geometry": {
        "type": "LineString",
        "coordinates": [
          [
            29.508907808688694,
            40.790008183092475
          ],
          [
            29.50884923181629,
            40.79005873311775
          ]
        ]
      }
    },
    {
      "type": "Feature",
      "properties": {
        "fid": 76,
        "tur": "yol",
        "not": null,
        "oneway": true
      },
      "geometry": {
        "type": "LineString",
        "coordinates": [
          [
            29.50882136878254,
            40.7900155529804
          ],
          [
            29.508831635760924,
            40.79001827936112
          ],
          [
            29.5088399015023,
            40.790019569390125
          ],
          [
            29.508849457272674,
            40.79001990384209
          ],
          [
            29.50885953861042,
            40.79002009495749
          ],
          [
            29.5088688077077,
            40.790019043822745
          ],
          [
            29.508876834554812,
            40.790017897130305
          ],
          [
            29.50888467028652,
            40.79001636820704
          ],
          [
            29.508891645998894,
            40.790014839283785
          ],
          [
            29.508898048365047,
            40.7900126414566
          ],
          [
            29.50890244401942,
            40.79001092141793
          ],
          [
            29.508907808688694,
            40.790008183092475
          ]
        ]
      }
    },
    {
      "type": "Feature",
      "properties": {
        "fid": 77,
        "tur": "yol",
        "not": null,
        "oneway": true
      },
      "geometry": {
        "type": "LineString",
        "coordinates": [
          [
            29.508893262019253,
            40.79006047704627
          ],
          [
            29.508888970383175,
            40.79005774469276
          ],
          [
            29.508886008094358,
            40.79005669355802
          ],
          [
            29.50888094353606,
            40.79005535575017
          ],
          [
            29.508875783420056,
            40.79005468684624
          ],
          [
            29.508870432188644,
            40.790054877961644
          ],
          [
            29.508865272072644,
            40.790055546865574
          ],
          [
            29.50885963416812,
            40.79005707578883
          ],
          [
            29.508853422917376,
            40.7900587958275
          ],
          [
            29.508846375039276,
            40.79006200596953
          ]
        ]
      }
    },
    {
      "type": "Feature",
      "properties": {
        "fid": 78,
        "tur": "yol",
        "not": null,
        "oneway": true
      },
      "geometry": {
        "type": "LineString",
        "coordinates": [
          [
            29.50887392751049,
            40.78999157994176
          ],
          [
            29.508869715505867,
            40.78999947838292
          ],
          [
            29.50886856881342,
            40.79000712299922
          ],
          [
            29.508867708794085,
            40.790015340961745
          ],
          [
            29.508868616592274,
            40.79002375003965
          ],
          [
            29.508869763284718,
            40.79003120354054
          ],
          [
            29.508870527746346,
            40.79003550363721
          ],
          [
            29.508872152227312,
            40.79004095042633
          ],
          [
            29.50887454116991,
            40.790045346080696
          ],
          [
            29.508876213429726,
            40.79004744835019
          ],
          [
            29.508878124583802,
            40.79004926394656
          ],
          [
            29.508881421324563,
            40.79005172455744
          ],
          [
            29.508888970383175,
            40.79005774469276
          ]
        ]
      }
    },
    {
      "type": "Feature",
      "properties": {
        "fid": 79,
        "tur": "yol",
        "not": null,
        "oneway": true
      },
      "geometry": {
        "type": "LineString",
        "coordinates": [
          [
            29.50863098598411,
            40.789887537509934
          ],
          [
            29.50864400820959,
            40.78989288376439
          ],
          [
            29.50865136615278,
            40.789895177149276
          ],
          [
            29.508661017480858,
            40.789896897187944
          ],
          [
            29.508668757654863,
            40.78989775720728
          ],
          [
            29.508675160021014,
            40.78989775720728
          ],
          [
            29.508682517964203,
            40.789897661649576
          ],
          [
            29.508689875907393,
            40.78989718386106
          ],
          [
            29.508697329408285,
            40.789895654937794
          ],
          [
            29.508703970668684,
            40.78989417379339
          ],
          [
            29.508709417457798,
            40.78989283598553
          ],
          [
            29.508714147564135,
            40.789891450398834
          ],
          [
            29.508718447660822,
            40.78988973036018
          ],
          [
            29.508725846912995,
            40.789886765085264
          ]
        ]
      }
    },
    {
      "type": "Feature",
      "properties": {
        "fid": 80,
        "tur": "yol",
        "not": null,
        "oneway": true
      },
      "geometry": {
        "type": "LineString",
        "coordinates": [
          [
            29.50892040239782,
            40.78976406899365
          ],
          [
            29.508841829080307,
            40.78971905086348
          ],
          [
            29.508838863805437,
            40.78971735322111
          ]
        ]
      }
    },
    {
      "type": "Feature",
      "properties": {
        "fid": 81,
        "tur": "yol",
        "not": null,
        "oneway": true
      },
      "geometry": {
        "type": "LineString",
        "coordinates": [
          [
            29.50890849629021,
            40.78968517604915
          ],
          [
            29.50890322639805,
            40.789692994965186
          ],
          [
            29.50890141080168,
            40.78969872842741
          ],
          [
            29.508900933013166,
            40.78970675527452
          ],
          [
            29.508900646340056,
            40.78971525991016
          ],
          [
            29.508901297326922,
            40.78972513221545
          ],
          [
            29.508901870673146,
            40.78973277683175
          ],
          [
            29.50890273069248,
            40.7897389880825
          ],
          [
            29.508905310750478,
            40.78974625046798
          ],
          [
            29.508907126346852,
            40.78975055056465
          ],
          [
            29.508909515289446,
            40.78975513733443
          ],
          [
            29.508912382020558,
            40.789757812950135
          ],
          [
            29.50892040239782,
            40.78976406899365
          ]
        ]
      }
    },
    {
      "type": "Feature",
      "properties": {
        "fid": 82,
        "tur": "yol",
        "not": null,
        "oneway": true
      },
      "geometry": {
        "type": "LineString",
        "coordinates": [
          [
            29.508933274816755,
            40.789706555200596
          ],
          [
            29.508868291596713,
            40.78976292230119
          ]
        ]
      }
    },
    {
      "type": "Feature",
      "properties": {
        "fid": 83,
        "tur": "yol",
        "not": null,
        "oneway": true
      },
      "geometry": {
        "type": "LineString",
        "coordinates": [
          [
            29.508841829080307,
            40.78971905086348
          ],
          [
            29.508851787984742,
            40.789722791051716
          ],
          [
            29.508858763697116,
            40.78972422441727
          ],
          [
            29.50886631275571,
            40.789724415532675
          ],
          [
            29.50887338402579,
            40.78972405719129
          ],
          [
            29.508883728147218,
            40.789723507734486
          ],
          [
            29.508891138348535,
            40.78972252229567
          ],
          [
            29.50889706292617,
            40.78972180561289
          ],
          [
            29.508902653051837,
            40.789720754478154
          ],
          [
            29.508908529850615,
            40.78971884332407
          ],
          [
            29.50891560112069,
            40.789716932169995
          ],
          [
            29.508924392429435,
            40.78971263207331
          ],
          [
            29.508933274816755,
            40.789706555200596
          ]
        ]
      }
    }
  ]
}