{
  "type": "FeatureCollection",
  "properties": {
    "generator": "generate_teknofest_geojson.py",
    "datum": [
      40.7899,
      29.5089
    ],
    "coordinate_note": "benim_dunyam.sdf spherical_coordinates datumundan uretildi",
    "schema_note": "cift serit + oneway + doner kavsak dairesi (map.geojson semasi)"
  },
  "features": [
    {
      "type": "Feature",
      "properties": {
        "name": "A-kuzey",
        "tur": "yol",
        "oneway": true
      },
      "geometry": {
        "type": "LineString",
        "coordinates": [
          [
            29.5094332,
            40.7894948
          ],
          [
            29.5094332,
            40.7895254
          ],
          [
            29.5094332,
            40.7897199
          ],
          [
            29.5094332,
            40.7897505
          ],
          [
            29.5094332,
            40.7899324
          ],
          [
            29.5094332,
            40.789963
          ],
          [
            29.5094332,
            40.7900441
          ],
          [
            29.5094332,
            40.7900855
          ],
          [
            29.5094332,
            40.7901161
          ]
        ]
      }
    },
    {
      "type": "Feature",
      "properties": {
        "name": "A-guney",
        "tur": "yol",
        "oneway": true
      },
      "geometry": {
        "type": "LineString",
        "coordinates": [
          [
            29.5093929,
            40.7901161
          ],
          [
            29.5093929,
            40.7900855
          ],
          [
            29.5093929,
            40.7900441
          ],
          [
            29.5093929,
            40.789963
          ],
          [
            29.5093929,
            40.7899324
          ],
          [
            29.5093929,
            40.7897505
          ],
          [
            29.5093929,
            40.7897199
          ],
          [
            29.5093929,
            40.7895254
          ],
          [
            29.5093929,
            40.7894948
          ]
        ]
      }
    },
    {
      "type": "Feature",
      "properties": {
        "name": "B-kuzey",
        "tur": "yol",
        "oneway": true
      },
      "geometry": {
        "type": "LineString",
        "coordinates": [
          [
            29.5091725,
            40.7894948
          ],
          [
            29.5091725,
            40.7895254
          ],
          [
            29.5091725,
            40.7897199
          ],
          [
            29.5091725,
            40.7897505
          ],
          [
            29.5091725,
            40.7899324
          ],
          [
            29.5091725,
            40.789963
          ],
          [
            29.5091725,
            40.7900855
          ],
          [
            29.5091725,
            40.7901161
          ]
        ]
      }
    },
    {
      "type": "Feature",
      "properties": {
        "name": "B-guney",
        "tur": "yol",
        "oneway": true
      },
      "geometry": {
        "type": "LineString",
        "coordinates": [
          [
            29.5091322,
            40.7901161
          ],
          [
            29.5091322,
            40.7900855
          ],
          [
            29.5091322,
            40.789963
          ],
          [
            29.5091322,
            40.7899324
          ],
          [
            29.5091322,
            40.7897505
          ],
          [
            29.5091322,
            40.7897199
          ],
          [
            29.5091322,
            40.7895254
          ],
          [
            29.5091322,
            40.7894948
          ]
        ]
      }
    },
    {
      "type": "Feature",
      "properties": {
        "name": "D-kuzey",
        "tur": "yol",
        "oneway": true
      },
      "geometry": {
        "type": "LineString",
        "coordinates": [
          [
            29.508509,
            40.7894948
          ],
          [
            29.508509,
            40.7895254
          ],
          [
            29.508509,
            40.7897199
          ],
          [
            29.508509,
            40.7897505
          ],
          [
            29.508509,
            40.7899324
          ],
          [
            29.508509,
            40.789963
          ],
          [
            29.508509,
            40.790013
          ],
          [
            29.508509,
            40.7900855
          ],
          [
            29.508509,
            40.7901161
          ]
        ]
      }
    },
    {
      "type": "Feature",
      "properties": {
        "name": "D-guney",
        "tur": "yol",
        "oneway": true
      },
      "geometry": {
        "type": "LineString",
        "coordinates": [
          [
            29.5084687,
            40.7901161
          ],
          [
            29.5084687,
            40.7900855
          ],
          [
            29.5084687,
            40.790013
          ],
          [
            29.5084687,
            40.789963
          ],
          [
            29.5084687,
            40.7899324
          ],
          [
            29.5084687,
            40.7897505
          ],
          [
            29.5084687,
            40.7897199
          ],
          [
            29.5084687,
            40.7895254
          ],
          [
            29.5084687,
            40.7894948
          ]
        ]
      }
    },
    {
      "type": "Feature",
      "properties": {
        "name": "C-kuzey-guney_parca",
        "tur": "yol",
        "oneway": true
      },
      "geometry": {
        "type": "LineString",
        "coordinates": [
          [
            29.5087791,
            40.7894948
          ],
          [
            29.5087791,
            40.7895254
          ],
          [
            29.5087791,
            40.7896759
          ]
        ]
      }
    },
    {
      "type": "Feature",
      "properties": {
        "name": "C-kuzey-kuzey_parca",
        "tur": "yol",
        "oneway": true
      },
      "geometry": {
        "type": "LineString",
        "coordinates": [
          [
            29.5087791,
            40.7897945
          ],
          [
            29.5087791,
            40.7899324
          ],
          [
            29.5087791,
            40.789963
          ],
          [
            29.5087791,
            40.7900855
          ],
          [
            29.5087791,
            40.7901161
          ]
        ]
      }
    },
    {
      "type": "Feature",
      "properties": {
        "name": "C-guney-kuzey_parca",
        "tur": "yol",
        "oneway": true
      },
      "geometry": {
        "type": "LineString",
        "coordinates": [
          [
            29.5087389,
            40.7901161
          ],
          [
            29.5087389,
            40.7900855
          ],
          [
            29.5087389,
            40.789963
          ],
          [
            29.5087389,
            40.7899324
          ],
          [
            29.5087389,
            40.7897945
          ]
        ]
      }
    },
    {
      "type": "Feature",
      "properties": {
        "name": "C-guney-guney_parca",
        "tur": "yol",
        "oneway": true
      },
      "geometry": {
        "type": "LineString",
        "coordinates": [
          [
            29.5087389,
            40.7896759
          ],
          [
            29.5087389,
            40.7895254
          ],
          [
            29.5087389,
            40.7894948
          ]
        ]
      }
    },
    {
      "type": "Feature",
      "properties": {
        "name": "1-dogu",
        "tur": "yol",
        "oneway": true
      },
      "geometry": {
        "type": "LineString",
        "coordinates": [
          [
            29.5084687,
            40.7900855
          ],
          [
            29.508509,
            40.7900855
          ],
          [
            29.5087389,
            40.7900855
          ],
          [
            29.5087791,
            40.7900855
          ],
          [
            29.5089082,
            40.7900855
          ],
          [
            29.5091322,
            40.7900855
          ],
          [
            29.5091725,
            40.7900855
          ],
          [
            29.5093929,
            40.7900855
          ],
          [
            29.5094332,
            40.7900855
          ]
        ]
      }
    },
    {
      "type": "Feature",
      "properties": {
        "name": "1-bati",
        "tur": "yol",
        "oneway": true
      },
      "geometry": {
        "type": "LineString",
        "coordinates": [
          [
            29.5094332,
            40.7901161
          ],
          [
            29.5093929,
            40.7901161
          ],
          [
            29.5091725,
            40.7901161
          ],
          [
            29.5091322,
            40.7901161
          ],
          [
            29.5089082,
            40.7901161
          ],
          [
            29.5087791,
            40.7901161
          ],
          [
            29.5087389,
            40.7901161
          ],
          [
            29.508509,
            40.7901161
          ],
          [
            29.5084687,
            40.7901161
          ]
        ]
      }
    },
    {
      "type": "Feature",
      "properties": {
        "name": "4-dogu",
        "tur": "yol",
        "oneway": true
      },
      "geometry": {
        "type": "LineString",
        "coordinates": [
          [
            29.5084687,
            40.7894948
          ],
          [
            29.508509,
            40.7894948
          ],
          [
            29.5087389,
            40.7894948
          ],
          [
            29.5087791,
            40.7894948
          ],
          [
            29.5090315,
            40.7894948
          ],
          [
            29.5091322,
            40.7894948
          ],
          [
            29.5091725,
            40.7894948
          ],
          [
            29.5093929,
            40.7894948
          ],
          [
            29.509413,
            40.7894948
          ],
          [
            29.5094332,
            40.7894948
          ]
        ]
      }
    },
    {
      "type": "Feature",
      "properties": {
        "name": "4-bati",
        "tur": "yol",
        "oneway": true
      },
      "geometry": {
        "type": "LineString",
        "coordinates": [
          [
            29.5094332,
            40.7895254
          ],
          [
            29.509413,
            40.7895254
          ],
          [
            29.5093929,
            40.7895254
          ],
          [
            29.5091725,
            40.7895254
          ],
          [
            29.5091322,
            40.7895254
          ],
          [
            29.5090315,
            40.7895254
          ],
          [
            29.5087791,
            40.7895254
          ],
          [
            29.5087389,
            40.7895254
          ],
          [
            29.508509,
            40.7895254
          ],
          [
            29.5084687,
            40.7895254
          ]
        ]
      }
    },
    {
      "type": "Feature",
      "properties": {
        "name": "2-dogu-bati_parca",
        "tur": "yol",
        "oneway": true
      },
      "geometry": {
        "type": "LineString",
        "coordinates": [
          [
            29.5084687,
            40.7899324
          ],
          [
            29.508509,
            40.7899324
          ],
          [
            29.5087389,
            40.7899324
          ],
          [
            29.5087791,
            40.7899324
          ]
        ]
      }
    },
    {
      "type": "Feature",
      "properties": {
        "name": "2-dogu-tunel",
        "tur": "yol",
        "oneway": true,
        "tunnel": true
      },
      "geometry": {
        "type": "LineString",
        "coordinates": [
          [
            29.5087791,
            40.7899324
          ],
          [
            29.5091322,
            40.7899324
          ]
        ]
      }
    },
    {
      "type": "Feature",
      "properties": {
        "name": "2-dogu-dogu_parca",
        "tur": "yol",
        "oneway": true
      },
      "geometry": {
        "type": "LineString",
        "coordinates": [
          [
            29.5091322,
            40.7899324
          ],
          [
            29.5091725,
            40.7899324
          ],
          [
            29.5093929,
            40.7899324
          ],
          [
            29.5094332,
            40.7899324
          ]
        ]
      }
    },
    {
      "type": "Feature",
      "properties": {
        "name": "2-bati-dogu_parca",
        "tur": "yol",
        "oneway": true
      },
      "geometry": {
        "type": "LineString",
        "coordinates": [
          [
            29.5094332,
            40.789963
          ],
          [
            29.5093929,
            40.789963
          ],
          [
            29.5091725,
            40.789963
          ],
          [
            29.5091322,
            40.789963
          ]
        ]
      }
    },
    {
      "type": "Feature",
      "properties": {
        "name": "2-bati-tunel",
        "tur": "yol",
        "oneway": true,
        "tunnel": true
      },
      "geometry": {
        "type": "LineString",
        "coordinates": [
          [
            29.5091322,
            40.789963
          ],
          [
            29.5087791,
            40.789963
          ]
        ]
      }
    },
    {
      "type": "Feature",
      "properties": {
        "name": "2-bati-bati_parca",
        "tur": "yol",
        "oneway": true
      },
      "geometry": {
        "type": "LineString",
        "coordinates": [
          [
            29.5087791,
            40.789963
          ],
          [
            29.5087389,
            40.789963
          ],
          [
            29.508509,
            40.789963
          ],
          [
            29.5084687,
            40.789963
          ]
        ]
      }
    },
    {
      "type": "Feature",
      "properties": {
        "name": "3-dogu-bati_parca",
        "tur": "yol",
        "oneway": true
      },
      "geometry": {
        "type": "LineString",
        "coordinates": [
          [
            29.5084687,
            40.7897199
          ],
          [
            29.508509,
            40.7897199
          ],
          [
            29.508681,
            40.7897199
          ]
        ]
      }
    },
    {
      "type": "Feature",
      "properties": {
        "name": "3-dogu-dogu_parca",
        "tur": "yol",
        "oneway": true
      },
      "geometry": {
        "type": "LineString",
        "coordinates": [
          [
            29.508837,
            40.7897199
          ],
          [
            29.5091322,
            40.7897199
          ],
          [
            29.5091725,
            40.7897199
          ],
          [
            29.5093929,
            40.7897199
          ],
          [
            29.5094332,
            40.7897199
          ]
        ]
      }
    },
    {
      "type": "Feature",
      "properties": {
        "name": "3-bati-dogu_parca",
        "tur": "yol",
        "oneway": true
      },
      "geometry": {
        "type": "LineString",
        "coordinates": [
          [
            29.5094332,
            40.7897505
          ],
          [
            29.5093929,
            40.7897505
          ],
          [
            29.5091725,
            40.7897505
          ],
          [
            29.5091322,
            40.7897505
          ],
          [
            29.508837,
            40.7897505
          ]
        ]
      }
    },
    {
      "type": "Feature",
      "properties": {
        "name": "3-bati-bati_parca",
        "tur": "yol",
        "oneway": true
      },
      "geometry": {
        "type": "LineString",
        "coordinates": [
          [
            29.508681,
            40.7897505
          ],
          [
            29.508509,
            40.7897505
          ],
          [
            29.5084687,
            40.7897505
          ]
        ]
      }
    },
    {
      "type": "Feature",
      "properties": {
        "name": "doner_kavsak",
        "tur": "kavsak",
        "oneway": true
      },
      "geometry": {
        "type": "LineString",
        "coordinates": [
          [
            29.5086784,
            40.7897352
          ],
          [
            29.508681,
            40.7897199
          ],
          [
            29.5086892,
            40.7897046
          ],
          [
            29.508702,
            40.7896919
          ],
          [
            29.5087187,
            40.7896822
          ],
          [
            29.5087389,
            40.7896759
          ],
          [
            29.508759,
            40.789674
          ],
          [
            29.5087791,
            40.7896759
          ],
          [
            29.5087993,
            40.7896822
          ],
          [
            29.508816,
            40.7896919
          ],
          [
            29.5088288,
            40.7897046
          ],
          [
            29.508837,
            40.7897199
          ],
          [
            29.5088396,
            40.7897352
          ],
          [
            29.508837,
            40.7897505
          ],
          [
            29.5088288,
            40.7897658
          ],
          [
            29.508816,
            40.7897785
          ],
          [
            29.5087993,
            40.7897882
          ],
          [
            29.5087791,
            40.7897945
          ],
          [
            29.508759,
            40.7897964
          ],
          [
            29.5087389,
            40.7897945
          ],
          [
            29.5087187,
            40.7897882
          ],
          [
            29.508702,
            40.7897785
          ],
          [
            29.5086892,
            40.7897658
          ],
          [
            29.508681,
            40.7897505
          ],
          [
            29.5086784,
            40.7897352
          ]
        ]
      }
    },
    {
      "type": "Feature",
      "properties": {
        "name": "A-park_erisim",
        "tur": "yol",
        "oneway": false
      },
      "geometry": {
        "type": "LineString",
        "coordinates": [
          [
            29.509413,
            40.7895254
          ],
          [
            29.509413,
            40.7894948
          ],
          [
            29.509413,
            40.7893291
          ]
        ]
      }
    },
    {
      "type": "Feature",
      "properties": {
        "name": "P-park_erisim",
        "tur": "yol",
        "oneway": false
      },
      "geometry": {
        "type": "LineString",
        "coordinates": [
          [
            29.5090315,
            40.7895254
          ],
          [
            29.5090315,
            40.7894948
          ],
          [
            29.5090315,
            40.7894678
          ],
          [
            29.5090315,
            40.7893291
          ]
        ]
      }
    },
    {
      "type": "Feature",
      "properties": {
        "name": "park_koridor",
        "tur": "yol",
        "oneway": false
      },
      "geometry": {
        "type": "LineString",
        "coordinates": [
          [
            29.5090315,
            40.7893291
          ],
          [
            29.5091986,
            40.7893291
          ],
          [
            29.509413,
            40.7893291
          ]
        ]
      }
    }
  ]
}